{
  "type": "FeatureCollection",
  "features": [
    {
      "type": "Feature",
      "geometry": {
        "type": "Point",
        "coordinates": [
          -72.791152617078,
          41.491245605985
        ]
      },
      "properties": {
        "name": "CMC Energy Services",
        "description": "Display Name: CMC<br>Town: Wallingford<br>Phone: (888) 403-3500<br>Services: Home energy solutions, Income eligible home energy solutions, Advanced Duct Sealing with Aeroseal, Ductwork cleaning<br>Energize CT?: Yes",
        "business_name": "CMC",
        "address": "4 Tower Drive Wallingford CT 06492",
        "town": "Wallingford",
        "phone": "(888) 403-3500",
        "website": "http://www.cmcenergy.com/",
        "service_aeroseal": "Yes",
        "service_alm": "No",
        "service_attic": "No",
        "service_bsmt": "No",
        "service_controls": "No",
        "service_cool": "No",
        "service_cool_ie": "No",
        "service_dhw": "No",
        "service_dhw_ie": "No",
        "service_duct_clean": "Yes",
        "service_elect": "No",
        "service_ev": "No",
        "service_gshp": "No",
        "service_handy": "No",
        "service_heat": "No",
        "service_heat_ie": "No",
        "service_hes": "Yes",
        "service_hes_ie": "Yes",
        "service_kt": "No",
        "service_lead": "No",
        "service_mold": "No",
        "service_other": "No",
        "service_plumb": "No",
        "service_pv": "No",
        "service_roof": "No",
        "service_storage": "No",
        "service_vrm": "No",
        "service_wall": "No",
        "service_wall_ie": "No",
        "service_windows": "No",
        "service_windows_ie": "No",
        "services": "Home energy solutions, Income eligible home energy solutions, Advanced Duct Sealing with Aeroseal, Ductwork cleaning",
        "energize_ct": "Yes"
      }
    },
    {
      "type": "Feature",
      "geometry": {
        "type": "Point",
        "coordinates": [
          -73.239144784075,
          41.162562142701
        ]
      },
      "properties": {
        "name": "CT Weatherproof Insulation",
        "description": "Display Name: CWI<br>Town: Fairfield<br>Phone:  203-813-1597<br>Services: Home energy solutions, Income eligible home energy solutions, Attic insulation, Window upgrade and installation, Heat pump water heating installation, Income eligible heat pump water heating installation, Heating system installation, Income eligible Heating system installation, Heat pump air conditioning installation, Income eligible heat pump air conditioning installation<br>Energize CT?: Yes",
        "business_name": "CWI",
        "address": "418 Meadow Street Fairfield CT 06824",
        "town": "Fairfield",
        "phone": "203-813-1597",
        "website": "https://weatherproofinsulation.com/",
        "service_aeroseal": "No",
        "service_alm": "No",
        "service_attic": "Yes",
        "service_bsmt": "No",
        "service_controls": "No",
        "service_cool": "Yes",
        "service_cool_ie": "Yes",
        "service_dhw": "Yes",
        "service_dhw_ie": "Yes",
        "service_duct_clean": "No",
        "service_elect": "No",
        "service_ev": "No",
        "service_gshp": "No",
        "service_handy": "No",
        "service_heat": "Yes",
        "service_heat_ie": "Yes",
        "service_hes": "Yes",
        "service_hes_ie": "Yes",
        "service_kt": "No",
        "service_lead": "No",
        "service_mold": "No",
        "service_other": "No",
        "service_plumb": "No",
        "service_pv": "No",
        "service_roof": "No",
        "service_storage": "No",
        "service_vrm": "No",
        "service_wall": "No",
        "service_wall_ie": "No",
        "service_windows": "Yes",
        "service_windows_ie": "No",
        "services": "Home energy solutions, Income eligible home energy solutions, Attic insulation, Window upgrade and installation, Heat pump water heating installation, Income eligible heat pump water heating installation, Heating system installation, Income eligible Heating system installation, Heat pump air conditioning installation, Income eligible heat pump air conditioning installation",
        "energize_ct": "Yes"
      }
    },
    {
      "type": "Feature",
      "geometry": {
        "type": "Point",
        "coordinates": [
          -72.719672019821,
          41.621993958932
        ]
      },
      "properties": {
        "name": "EcoSmart Home Services",
        "description": "Display Name: EcoSmart<br>Town: East Berlin<br>Phone: (860) 828-6626<br>Services: Home energy solutions, Income eligible home energy solutions, Attic insulation, Ground source heat pump installation, Solar installation, Solar battery storage, Electric Vehicle charger or car purchase<br>Energize CT?: Yes",
        "business_name": "EcoSmart",
        "address": "105A Clark Drive East Berlin CT 06023",
        "town": "East Berlin",
        "phone": "(860) 828-6626",
        "website": "https://www.ecosmartct.com/",
        "service_aeroseal": "No",
        "service_alm": "No",
        "service_attic": "Yes",
        "service_bsmt": "No",
        "service_controls": "No",
        "service_cool": "No",
        "service_cool_ie": "No",
        "service_dhw": "No",
        "service_dhw_ie": "No",
        "service_duct_clean": "No",
        "service_elect": "No",
        "service_ev": "Yes",
        "service_gshp": "Yes",
        "service_handy": "No",
        "service_heat": "No",
        "service_heat_ie": "No",
        "service_hes": "Yes",
        "service_hes_ie": "Yes",
        "service_kt": "No",
        "service_lead": "No",
        "service_mold": "No",
        "service_other": "No",
        "service_plumb": "No",
        "service_pv": "Yes",
        "service_roof": "No",
        "service_storage": "Yes",
        "service_vrm": "No",
        "service_wall": "No",
        "service_wall_ie": "No",
        "service_windows": "No",
        "service_windows_ie": "No",
        "services": "Home energy solutions, Income eligible home energy solutions, Attic insulation, Ground source heat pump installation, Solar installation, Solar battery storage, Electric Vehicle charger or car purchase",
        "energize_ct": "Yes"
      }
    },
    {
      "type": "Feature",
      "geometry": {
        "type": "Point",
        "coordinates": [
          -72.638779410647,
          41.860837280193
        ]
      },
      "properties": {
        "name": "Energy Efficiencies Solutions",
        "description": "Display Name: EES<br>Town: Windsor<br>Phone: 860-580-9076<br>Services: Home energy solutions, Income eligible home energy solutions, Attic insulation<br>Energize CT?: Yes",
        "business_name": "EES",
        "address": "398 Palisado Avenue Windsor CT 06095",
        "town": "Windsor",
        "phone": "860-580-9076",
        "website": "https://eesgogreen.com/",
        "service_aeroseal": "No",
        "service_alm": "No",
        "service_attic": "Yes",
        "service_bsmt": "No",
        "service_controls": "No",
        "service_cool": "No",
        "service_cool_ie": "No",
        "service_dhw": "No",
        "service_dhw_ie": "No",
        "service_duct_clean": "No",
        "service_elect": "No",
        "service_ev": "No",
        "service_gshp": "No",
        "service_handy": "No",
        "service_heat": "No",
        "service_heat_ie": "No",
        "service_hes": "Yes",
        "service_hes_ie": "Yes",
        "service_kt": "No",
        "service_lead": "No",
        "service_mold": "No",
        "service_other": "No",
        "service_plumb": "No",
        "service_pv": "No",
        "service_roof": "No",
        "service_storage": "No",
        "service_vrm": "No",
        "service_wall": "No",
        "service_wall_ie": "No",
        "service_windows": "No",
        "service_windows_ie": "No",
        "services": "Home energy solutions, Income eligible home energy solutions, Attic insulation",
        "energize_ct": "Yes"
      }
    },
    {
      "type": "Feature",
      "geometry": {
        "type": "Point",
        "coordinates": [
          -73.144407759038,
          41.1737297112
        ]
      },
      "properties": {
        "name": "Home Comfort Practice",
        "description": "Display Name: HCP<br>Town: Stratford<br>Phone: (203) 450-3000<br>Services: Home energy solutions, Income eligible home energy solutions, Attic insulation, Income eligible attic insulation, Basement insulation, Income eligible basement insulation, Wall insulation, Income eligible wall insulation, Window upgrade and installation, Income eligible window upgrade and installation, Heat pump water heating installation, Income eligible heat pump water heating installation, Heating system installation, Income eligible Heating system installation, Heat pump air conditioning installation, Income eligible heat pump air conditioning installation<br>Energize CT?: Yes",
        "business_name": "HCP",
        "address": "165 Benton St Stratford CT 06615",
        "town": "Stratford",
        "phone": "(203) 450-3000",
        "website": "https://www.homecomfortpractice.com/",
        "service_aeroseal": "No",
        "service_alm": "No",
        "service_attic": "Yes",
        "service_bsmt": "Yes",
        "service_controls": "No",
        "service_cool": "Yes",
        "service_cool_ie": "Yes",
        "service_dhw": "Yes",
        "service_dhw_ie": "Yes",
        "service_duct_clean": "No",
        "service_elect": "No",
        "service_ev": "No",
        "service_gshp": "No",
        "service_handy": "No",
        "service_heat": "Yes",
        "service_heat_ie": "Yes",
        "service_hes": "Yes",
        "service_hes_ie": "Yes",
        "service_kt": "No",
        "service_lead": "No",
        "service_mold": "No",
        "service_other": "No",
        "service_plumb": "No",
        "service_pv": "No",
        "service_roof": "No",
        "service_storage": "No",
        "service_vrm": "No",
        "service_wall": "Yes",
        "service_wall_ie": "Yes",
        "service_windows": "Yes",
        "service_windows_ie": "Yes",
        "services": "Home energy solutions, Income eligible home energy solutions, Attic insulation, Income eligible attic insulation, Basement insulation, Income eligible basement insulation, Wall insulation, Income eligible wall insulation, Window upgrade and installation, Income eligible window upgrade and installation, Heat pump water heating installation, Income eligible heat pump water heating installation, Heating system installation, Income eligible Heating system installation, Heat pump air conditioning installation, Income eligible heat pump air conditioning installation",
        "energize_ct": "Yes"
      }
    },
    {
      "type": "Feature",
      "geometry": {
        "type": "Point",
        "coordinates": [
          -73.138784861069,
          41.196367044786
        ]
      },
      "properties": {
        "name": "Handyman Express Energy Solutions",
        "description": "Display Name: HE Soln<br>Town: Stratford<br>Phone: 203-307-5395<br>Services: Home energy solutions, Income eligible home energy solutions, Attic insulation, Income eligible attic insulation, Basement insulation, Income eligible basement insulation, Wall insulation, Income eligible wall insulation, Window upgrade and installation, Income eligible window upgrade and installation, Plumbing, Heat pump water heating installation, Income eligible heat pump water heating installation, Heating system installation, Income eligible Heating system installation, Heat pump air conditioning installation, Income eligible heat pump air conditioning installation<br>Energize CT?: Yes",
        "business_name": "HE Soln",
        "address": "1414 Barnum Ave. Stratford CT 06614",
        "town": "Stratford",
        "phone": "203-307-5395",
        "website": "http://he-energysolutions.com/",
        "service_aeroseal": "No",
        "service_alm": "No",
        "service_attic": "Yes",
        "service_bsmt": "Yes",
        "service_controls": "No",
        "service_cool": "Yes",
        "service_cool_ie": "Yes",
        "service_dhw": "Yes",
        "service_dhw_ie": "Yes",
        "service_duct_clean": "No",
        "service_elect": "No",
        "service_ev": "No",
        "service_gshp": "No",
        "service_handy": "No",
        "service_heat": "Yes",
        "service_heat_ie": "Yes",
        "service_hes": "Yes",
        "service_hes_ie": "Yes",
        "service_kt": "No",
        "service_lead": "No",
        "service_mold": "No",
        "service_other": "No",
        "service_plumb": "Yes",
        "service_pv": "No",
        "service_roof": "No",
        "service_storage": "No",
        "service_vrm": "No",
        "service_wall": "Yes",
        "service_wall_ie": "Yes",
        "service_windows": "Yes",
        "service_windows_ie": "Yes",
        "services": "Home energy solutions, Income eligible home energy solutions, Attic insulation, Income eligible attic insulation, Basement insulation, Income eligible basement insulation, Wall insulation, Income eligible wall insulation, Window upgrade and installation, Income eligible window upgrade and installation, Plumbing, Heat pump water heating installation, Income eligible heat pump water heating installation, Heating system installation, Income eligible Heating system installation, Heat pump air conditioning installation, Income eligible heat pump air conditioning installation",
        "energize_ct": "Yes"
      }
    },
    {
      "type": "Feature",
      "geometry": {
        "type": "Point",
        "coordinates": [
          -73.240434531066,
          41.38394602865
        ]
      },
      "properties": {
        "name": "Home Doctor of America",
        "description": "Display Name: Home Doctor<br>Town:  Sandy Hook<br>Phone: (203) 405-3040<br>Services: Home energy solutions, Income eligible home energy solutions, Advanced Duct Sealing with Aeroseal<br>Energize CT?: Yes",
        "business_name": "Home Doctor",
        "address": "15 New Lebbon Rd Sandy Hook CT 06482",
        "town": "Sandy Hook",
        "phone": "(203) 405-3040",
        "website": "https://homedoctorofamerica.com/",
        "service_aeroseal": "Yes",
        "service_alm": "No",
        "service_attic": "No",
        "service_bsmt": "No",
        "service_controls": "No",
        "service_cool": "No",
        "service_cool_ie": "No",
        "service_dhw": "No",
        "service_dhw_ie": "No",
        "service_duct_clean": "No",
        "service_elect": "No",
        "service_ev": "No",
        "service_gshp": "No",
        "service_handy": "No",
        "service_heat": "No",
        "service_heat_ie": "No",
        "service_hes": "Yes",
        "service_hes_ie": "Yes",
        "service_kt": "No",
        "service_lead": "No",
        "service_mold": "No",
        "service_other": "No",
        "service_plumb": "No",
        "service_pv": "No",
        "service_roof": "No",
        "service_storage": "No",
        "service_vrm": "No",
        "service_wall": "No",
        "service_wall_ie": "No",
        "service_windows": "No",
        "service_windows_ie": "No",
        "services": "Home energy solutions, Income eligible home energy solutions, Advanced Duct Sealing with Aeroseal",
        "energize_ct": "Yes"
      }
    },
    {
      "type": "Feature",
      "geometry": {
        "type": "Point",
        "coordinates": [
          -72.579797241888,
          41.711536660583
        ]
      },
      "properties": {
        "name": "Lantern Energy",
        "description": "Display Name: Lantern Energy<br>Town: Glastonbury<br>Phone: (877) 878-3006 x109<br>Services: Home energy solutions, Income eligible home energy solutions, Attic insulation, Advanced Duct Sealing with Aeroseal<br>Energize CT?: Yes",
        "business_name": "Lantern Energy",
        "address": "256 Oakwood Drive Glastonbury CT 06033",
        "town": "Glastonbury",
        "phone": "(877) 878-3006 x109",
        "website": "http://www.lanternenergy.com/",
        "service_aeroseal": "Yes",
        "service_alm": "No",
        "service_attic": "Yes",
        "service_bsmt": "No",
        "service_controls": "No",
        "service_cool": "No",
        "service_cool_ie": "No",
        "service_dhw": "No",
        "service_dhw_ie": "No",
        "service_duct_clean": "No",
        "service_elect": "No",
        "service_ev": "No",
        "service_gshp": "No",
        "service_handy": "No",
        "service_heat": "No",
        "service_heat_ie": "No",
        "service_hes": "Yes",
        "service_hes_ie": "Yes",
        "service_kt": "No",
        "service_lead": "No",
        "service_mold": "No",
        "service_other": "No",
        "service_plumb": "No",
        "service_pv": "No",
        "service_roof": "No",
        "service_storage": "No",
        "service_vrm": "No",
        "service_wall": "No",
        "service_wall_ie": "No",
        "service_windows": "No",
        "service_windows_ie": "No",
        "services": "Home energy solutions, Income eligible home energy solutions, Attic insulation, Advanced Duct Sealing with Aeroseal",
        "energize_ct": "Yes"
      }
    },
    {
      "type": "Feature",
      "geometry": {
        "type": "Point",
        "coordinates": [
          -73.040791644124,
          41.539708842908
        ]
      },
      "properties": {
        "name": "Valiant Energy Solutions",
        "description": "Display Name: Valiant<br>Town: Waterbury<br>Phone: (866) 707-1625<br>Services: Home energy solutions, Income eligible home energy solutions, Attic insulation, Income eligible attic insulation, Basement insulation, Income eligible basement insulation, Wall insulation, Income eligible wall insulation, Window upgrade and installation, Income eligible window upgrade and installation, Plumbing, Heat pump water heating installation, Income eligible heat pump water heating installation, Heating system installation, Income eligible Heating system installation, Heat pump air conditioning installation, Income eligible heat pump air conditioning installation, Advanced Duct Sealing with Aeroseal, Ductwork cleaning, HVAC control integration installation, Electrical, Knob and tube wiring remediation<br>Energize CT?: Yes",
        "business_name": "Valiant",
        "address": "165 Railroad Hill St Waterbury CT 06708",
        "town": "Waterbury",
        "phone": "(866) 707-1625",
        "website": "https://valiantenergy.com/",
        "service_aeroseal": "Yes",
        "service_alm": "No",
        "service_attic": "Yes",
        "service_bsmt": "Yes",
        "service_controls": "Yes",
        "service_cool": "Yes",
        "service_cool_ie": "Yes",
        "service_dhw": "Yes",
        "service_dhw_ie": "Yes",
        "service_duct_clean": "Yes",
        "service_elect": "Yes",
        "service_ev": "No",
        "service_gshp": "No",
        "service_handy": "No",
        "service_heat": "Yes",
        "service_heat_ie": "Yes",
        "service_hes": "Yes",
        "service_hes_ie": "Yes",
        "service_kt": "Yes",
        "service_lead": "No",
        "service_mold": "No",
        "service_other": "No",
        "service_plumb": "Yes",
        "service_pv": "No",
        "service_roof": "No",
        "service_storage": "No",
        "service_vrm": "No",
        "service_wall": "Yes",
        "service_wall_ie": "Yes",
        "service_windows": "Yes",
        "service_windows_ie": "Yes",
        "services": "Home energy solutions, Income eligible home energy solutions, Attic insulation, Income eligible attic insulation, Basement insulation, Income eligible basement insulation, Wall insulation, Income eligible wall insulation, Window upgrade and installation, Income eligible window upgrade and installation, Plumbing, Heat pump water heating installation, Income eligible heat pump water heating installation, Heating system installation, Income eligible Heating system installation, Heat pump air conditioning installation, Income eligible heat pump air conditioning installation, Advanced Duct Sealing with Aeroseal, Ductwork cleaning, HVAC control integration installation, Electrical, Knob and tube wiring remediation",
        "energize_ct": "Yes"
      }
    }
  ]
}