{
  "type": "FeatureCollection",
  "features": [
    {
      "type": "Feature",
      "geometry": {
        "type": "Polygon",
        "coordinates": [
          [
            [
              -73.43945,
              41.11661
            ],
            [
              -73.43857,
              41.11187
            ],
            [
              -73.43709,
              41.11059
            ],
            [
              -73.43405,
              41.11007
            ],
            [
              -73.43008,
              41.10393
            ],
            [
              -73.4238,
              41.10618
            ],
            [
              -73.42004,
              41.10658
            ],
            [
              -73.41877,
              41.10996
            ],
            [
              -73.41886,
              41.11544
            ],
            [
              -73.41975,
              41.11664
            ],
            [
              -73.42394,
              41.11773
            ],
            [
              -73.42899,
              41.11679
            ],
            [
              -73.43217,
              41.11863
            ],
            [
              -73.4358,
              41.11874
            ],
            [
              -73.43766,
              41.11775
            ],
            [
              -73.43848,
              41.11815
            ],
            [
              -73.43945,
              41.11661
            ]
          ]
        ]
      },
      "properties": {
        "geoid": "09001043800",
        "name": "Census Tract 438",
        "town": "",
        "total": 1,
        "gap": 0,
        "lisc": 1
      }
    },
    {
      "type": "Feature",
      "geometry": {
        "type": "Polygon",
        "coordinates": [
          [
            [
              -73.45384,
              41.08774
            ],
            [
              -73.45236,
              41.08768
            ],
            [
              -73.45159,
              41.08869
            ],
            [
              -73.45022,
              41.08652
            ],
            [
              -73.44812,
              41.08596
            ],
            [
              -73.44732,
              41.08475
            ],
            [
              -73.44623,
              41.07728
            ],
            [
              -73.43641,
              41.07875
            ],
            [
              -73.43269,
              41.08034
            ],
            [
              -73.43036,
              41.08265
            ],
            [
              -73.42885,
              41.08589
            ],
            [
              -73.4301,
              41.08615
            ],
            [
              -73.42944,
              41.08757
            ],
            [
              -73.43009,
              41.08814
            ],
            [
              -73.42983,
              41.09118
            ],
            [
              -73.43137,
              41.09487
            ],
            [
              -73.43176,
              41.09823
            ],
            [
              -73.43007,
              41.09846
            ],
            [
              -73.42862,
              41.1
            ],
            [
              -73.43008,
              41.10393
            ],
            [
              -73.43992,
              41.09907
            ],
            [
              -73.44867,
              41.09164
            ],
            [
              -73.45358,
              41.08962
            ],
            [
              -73.45384,
              41.08774
            ]
          ]
        ]
      },
      "properties": {
        "geoid": "09001043900",
        "name": "Census Tract 439",
        "town": "",
        "total": 1,
        "gap": 0,
        "lisc": 1
      }
    },
    {
      "type": "Feature",
      "geometry": {
        "type": "Polygon",
        "coordinates": [
          [
            [
              -73.18776,
              41.20468
            ],
            [
              -73.18555,
              41.207
            ],
            [
              -73.18384,
              41.20622
            ],
            [
              -73.17886,
              41.20615
            ],
            [
              -73.17891,
              41.21014
            ],
            [
              -73.17303,
              41.21572
            ],
            [
              -73.16726,
              41.22398
            ],
            [
              -73.16468,
              41.22565
            ],
            [
              -73.16955,
              41.22276
            ],
            [
              -73.17884,
              41.22197
            ],
            [
              -73.17942,
              41.21799
            ],
            [
              -73.1848,
              41.21094
            ],
            [
              -73.18619,
              41.20794
            ],
            [
              -73.18586,
              41.20726
            ],
            [
              -73.18698,
              41.20666
            ],
            [
              -73.18776,
              41.20468
            ]
          ]
        ]
      },
      "properties": {
        "geoid": "09001073000",
        "name": "Census Tract 730",
        "town": "",
        "total": 1,
        "gap": 0,
        "lisc": 1
      }
    },
    {
      "type": "Feature",
      "geometry": {
        "type": "Polygon",
        "coordinates": [
          [
            [
              -73.15645,
              41.20058
            ],
            [
              -73.15446,
              41.1948
            ],
            [
              -73.15467,
              41.19339
            ],
            [
              -73.15377,
              41.19272
            ],
            [
              -73.15511,
              41.18999
            ],
            [
              -73.14126,
              41.19518
            ],
            [
              -73.14812,
              41.20412
            ],
            [
              -73.15282,
              41.20335
            ],
            [
              -73.1555,
              41.20387
            ],
            [
              -73.15645,
              41.20058
            ]
          ]
        ]
      },
      "properties": {
        "geoid": "09001080100",
        "name": "Census Tract 801",
        "town": "",
        "total": 1,
        "gap": 1,
        "lisc": 0
      }
    },
    {
      "type": "Feature",
      "geometry": {
        "type": "Polygon",
        "coordinates": [
          [
            [
              -73.13199,
              41.2065
            ],
            [
              -73.13119,
              41.20228
            ],
            [
              -73.1317,
              41.19904
            ],
            [
              -73.1235,
              41.19853
            ],
            [
              -73.11853,
              41.19927
            ],
            [
              -73.11621,
              41.20068
            ],
            [
              -73.11057,
              41.20027
            ],
            [
              -73.10925,
              41.2041
            ],
            [
              -73.11065,
              41.2078
            ],
            [
              -73.11065,
              41.2108
            ],
            [
              -73.11025,
              41.214
            ],
            [
              -73.10835,
              41.2183
            ],
            [
              -73.11045,
              41.2253
            ],
            [
              -73.11429,
              41.22537
            ],
            [
              -73.11883,
              41.21948
            ],
            [
              -73.12397,
              41.21774
            ],
            [
              -73.13199,
              41.2065
            ]
          ]
        ]
      },
      "properties": {
        "geoid": "09001080800",
        "name": "Census Tract 808",
        "town": "",
        "total": 1,
        "gap": 1,
        "lisc": 0
      }
    },
    {
      "type": "Feature",
      "geometry": {
        "type": "Polygon",
        "coordinates": [
          [
            [
              -73.14688,
              41.25537
            ],
            [
              -73.14543,
              41.25412
            ],
            [
              -73.14523,
              41.24985
            ],
            [
              -73.14333,
              41.24503
            ],
            [
              -73.14309,
              41.24096
            ],
            [
              -73.14006,
              41.23719
            ],
            [
              -73.12449,
              41.23925
            ],
            [
              -73.10069,
              41.24568
            ],
            [
              -73.09122,
              41.24641
            ],
            [
              -73.08735,
              41.25179
            ],
            [
              -73.08675,
              41.2546
            ],
            [
              -73.09087,
              41.25708
            ],
            [
              -73.09456,
              41.25621
            ],
            [
              -73.09527,
              41.25805
            ],
            [
              -73.09715,
              41.25888
            ],
            [
              -73.10298,
              41.25951
            ],
            [
              -73.10295,
              41.26164
            ],
            [
              -73.10411,
              41.26316
            ],
            [
              -73.10726,
              41.26437
            ],
            [
              -73.10593,
              41.26681
            ],
            [
              -73.1083,
              41.26858
            ],
            [
              -73.1439,
              41.25716
            ],
            [
              -73.14688,
              41.25537
            ]
          ]
        ]
      },
      "properties": {
        "geoid": "09001081300",
        "name": "Census Tract 813",
        "town": "",
        "total": 1,
        "gap": 0,
        "lisc": 1
      }
    },
    {
      "type": "Feature",
      "geometry": {
        "type": "Polygon",
        "coordinates": [
          [
            [
              -73.43564,
              41.39949
            ],
            [
              -73.43068,
              41.39945
            ],
            [
              -73.42829,
              41.39318
            ],
            [
              -73.42654,
              41.39088
            ],
            [
              -73.42363,
              41.39004
            ],
            [
              -73.4226,
              41.3876
            ],
            [
              -73.42329,
              41.38623
            ],
            [
              -73.42097,
              41.38467
            ],
            [
              -73.40729,
              41.39574
            ],
            [
              -73.40784,
              41.39715
            ],
            [
              -73.40473,
              41.40122
            ],
            [
              -73.40498,
              41.40264
            ],
            [
              -73.40118,
              41.40285
            ],
            [
              -73.40082,
              41.40345
            ],
            [
              -73.40602,
              41.41544
            ],
            [
              -73.40913,
              41.41402
            ],
            [
              -73.4124,
              41.41375
            ],
            [
              -73.42085,
              41.41725
            ],
            [
              -73.42804,
              41.41004
            ],
            [
              -73.42952,
              41.40754
            ],
            [
              -73.43003,
              41.40415
            ],
            [
              -73.43564,
              41.39949
            ]
          ]
        ]
      },
      "properties": {
        "geoid": "09001210402",
        "name": "Census Tract 2104.02",
        "town": "",
        "total": 1,
        "gap": 0,
        "lisc": 1
      }
    },
    {
      "type": "Feature",
      "geometry": {
        "type": "Polygon",
        "coordinates": [
          [
            [
              -72.77668,
              41.67094
            ],
            [
              -72.75443,
              41.6721
            ],
            [
              -72.75755,
              41.68874
            ],
            [
              -72.7619,
              41.68416
            ],
            [
              -72.76762,
              41.68356
            ],
            [
              -72.76917,
              41.67753
            ],
            [
              -72.77668,
              41.67094
            ]
          ]
        ]
      },
      "properties": {
        "geoid": "09003416300",
        "name": "Census Tract 4163",
        "town": "",
        "total": 1,
        "gap": 1,
        "lisc": 0
      }
    },
    {
      "type": "Feature",
      "geometry": {
        "type": "Polygon",
        "coordinates": [
          [
            [
              -72.82562,
              41.66849
            ],
            [
              -72.82257,
              41.65571
            ],
            [
              -72.82074,
              41.65572
            ],
            [
              -72.81919,
              41.645
            ],
            [
              -72.79116,
              41.64748
            ],
            [
              -72.79809,
              41.65611
            ],
            [
              -72.80615,
              41.66364
            ],
            [
              -72.80674,
              41.66534
            ],
            [
              -72.81268,
              41.66702
            ],
            [
              -72.82562,
              41.66849
            ]
          ]
        ]
      },
      "properties": {
        "geoid": "09003416400",
        "name": "Census Tract 4164",
        "town": "",
        "total": 1,
        "gap": 1,
        "lisc": 0
      }
    },
    {
      "type": "Feature",
      "geometry": {
        "type": "Polygon",
        "coordinates": [
          [
            [
              -72.81431,
              41.68829
            ],
            [
              -72.81209,
              41.68827
            ],
            [
              -72.80816,
              41.68548
            ],
            [
              -72.80211,
              41.68423
            ],
            [
              -72.79627,
              41.68435
            ],
            [
              -72.7932,
              41.68342
            ],
            [
              -72.78857,
              41.68552
            ],
            [
              -72.79118,
              41.69438
            ],
            [
              -72.79137,
              41.69806
            ],
            [
              -72.79595,
              41.7034
            ],
            [
              -72.8101,
              41.69183
            ],
            [
              -72.8111,
              41.69225
            ],
            [
              -72.81201,
              41.69023
            ],
            [
              -72.81431,
              41.68829
            ]
          ]
        ]
      },
      "properties": {
        "geoid": "09003416700",
        "name": "Census Tract 4167",
        "town": "",
        "total": 1,
        "gap": 0,
        "lisc": 1
      }
    },
    {
      "type": "Feature",
      "geometry": {
        "type": "Polygon",
        "coordinates": [
          [
            [
              -72.69591,
              41.92243
            ],
            [
              -72.6922,
              41.9197
            ],
            [
              -72.6744,
              41.91604
            ],
            [
              -72.66289,
              41.90832
            ],
            [
              -72.64994,
              41.90345
            ],
            [
              -72.64275,
              41.9001
            ],
            [
              -72.63983,
              41.8976
            ],
            [
              -72.63469,
              41.90427
            ],
            [
              -72.63573,
              41.90581
            ],
            [
              -72.63768,
              41.9146
            ],
            [
              -72.63369,
              41.92081
            ],
            [
              -72.63324,
              41.92592
            ],
            [
              -72.66087,
              41.9266
            ],
            [
              -72.67037,
              41.9298
            ],
            [
              -72.67013,
              41.92492
            ],
            [
              -72.6785,
              41.92521
            ],
            [
              -72.68307,
              41.92641
            ],
            [
              -72.68968,
              41.93112
            ],
            [
              -72.69351,
              41.92878
            ],
            [
              -72.69535,
              41.92227
            ],
            [
              -72.69591,
              41.92243
            ]
          ]
        ]
      },
      "properties": {
        "geoid": "09003476300",
        "name": "Census Tract 4763",
        "town": "",
        "total": 1,
        "gap": 1,
        "lisc": 0
      }
    },
    {
      "type": "Feature",
      "geometry": {
        "type": "Polygon",
        "coordinates": [
          [
            [
              -72.68256,
              41.74243
            ],
            [
              -72.68174,
              41.73663
            ],
            [
              -72.67739,
              41.73764
            ],
            [
              -72.67717,
              41.73685
            ],
            [
              -72.67531,
              41.7371
            ],
            [
              -72.67467,
              41.7334
            ],
            [
              -72.67026,
              41.73399
            ],
            [
              -72.67296,
              41.74404
            ],
            [
              -72.68256,
              41.74243
            ]
          ]
        ]
      },
      "properties": {
        "geoid": "09003502400",
        "name": "Census Tract 5024",
        "town": "",
        "total": 1,
        "gap": 0,
        "lisc": 1
      }
    },
    {
      "type": "Feature",
      "geometry": {
        "type": "Polygon",
        "coordinates": [
          [
            [
              -72.69296,
              41.74081
            ],
            [
              -72.69279,
              41.73508
            ],
            [
              -72.68608,
              41.73657
            ],
            [
              -72.6832,
              41.74221
            ],
            [
              -72.68718,
              41.74192
            ],
            [
              -72.68718,
              41.74515
            ],
            [
              -72.69219,
              41.74236
            ],
            [
              -72.69296,
              41.74081
            ]
          ]
        ]
      },
      "properties": {
        "geoid": "09003502600",
        "name": "Census Tract 5026",
        "town": "",
        "total": 1,
        "gap": 0,
        "lisc": 1
      }
    },
    {
      "type": "Feature",
      "geometry": {
        "type": "Polygon",
        "coordinates": [
          [
            [
              -73.1221,
              41.81938
            ],
            [
              -73.12124,
              41.80601
            ],
            [
              -73.11421,
              41.80648
            ],
            [
              -73.1141,
              41.80556
            ],
            [
              -73.10666,
              41.80967
            ],
            [
              -73.10641,
              41.81505
            ],
            [
              -73.1033,
              41.81767
            ],
            [
              -73.09194,
              41.82021
            ],
            [
              -73.0915,
              41.82177
            ],
            [
              -73.10142,
              41.82404
            ],
            [
              -73.10582,
              41.83178
            ],
            [
              -73.1221,
              41.81938
            ]
          ]
        ]
      },
      "properties": {
        "geoid": "09005310100",
        "name": "Census Tract 3101",
        "town": "",
        "total": 1,
        "gap": 0,
        "lisc": 1
      }
    },
    {
      "type": "Feature",
      "geometry": {
        "type": "Polygon",
        "coordinates": [
          [
            [
              -73.12457,
              41.34533
            ],
            [
              -73.12285,
              41.3414
            ],
            [
              -73.11575,
              41.3322
            ],
            [
              -73.09324,
              41.32101
            ],
            [
              -73.08526,
              41.3137
            ],
            [
              -73.08205,
              41.3131
            ],
            [
              -73.08111,
              41.31367
            ],
            [
              -73.0819,
              41.32652
            ],
            [
              -73.08116,
              41.32938
            ],
            [
              -73.07918,
              41.33084
            ],
            [
              -73.08821,
              41.33511
            ],
            [
              -73.09113,
              41.33871
            ],
            [
              -73.09286,
              41.33946
            ],
            [
              -73.09567,
              41.33932
            ],
            [
              -73.09579,
              41.34073
            ],
            [
              -73.10235,
              41.3529
            ],
            [
              -73.12457,
              41.34533
            ]
          ]
        ]
      },
      "properties": {
        "geoid": "09009120200",
        "name": "Census Tract 1202",
        "town": "",
        "total": 1,
        "gap": 1,
        "lisc": 0
      }
    },
    {
      "type": "Feature",
      "geometry": {
        "type": "Polygon",
        "coordinates": [
          [
            [
              -72.93759,
              41.30609
            ],
            [
              -72.934,
              41.29691
            ],
            [
              -72.9356,
              41.2965
            ],
            [
              -72.93418,
              41.29142
            ],
            [
              -72.93082,
              41.2935
            ],
            [
              -72.93106,
              41.29454
            ],
            [
              -72.9283,
              41.29629
            ],
            [
              -72.92939,
              41.30069
            ],
            [
              -72.92812,
              41.30279
            ],
            [
              -72.93723,
              41.30695
            ],
            [
              -72.93759,
              41.30609
            ]
          ]
        ]
      },
      "properties": {
        "geoid": "09009140300",
        "name": "Census Tract 1403",
        "town": "",
        "total": 1,
        "gap": 1,
        "lisc": 0
      }
    },
    {
      "type": "Feature",
      "geometry": {
        "type": "Polygon",
        "coordinates": [
          [
            [
              -72.94065,
              41.2867
            ],
            [
              -72.93893,
              41.28144
            ],
            [
              -72.93257,
              41.27791
            ],
            [
              -72.92811,
              41.2776
            ],
            [
              -72.92394,
              41.27936
            ],
            [
              -72.92221,
              41.28195
            ],
            [
              -72.92692,
              41.28331
            ],
            [
              -72.92865,
              41.28302
            ],
            [
              -72.92902,
              41.2842
            ],
            [
              -72.93033,
              41.28399
            ],
            [
              -72.93067,
              41.28526
            ],
            [
              -72.92931,
              41.28546
            ],
            [
              -72.93105,
              41.29156
            ],
            [
              -72.9303,
              41.2917
            ],
            [
              -72.93082,
              41.2935
            ],
            [
              -72.94021,
              41.28778
            ],
            [
              -72.94065,
              41.2867
            ]
          ]
        ]
      },
      "properties": {
        "geoid": "09009140400",
        "name": "Census Tract 1404",
        "town": "",
        "total": 1,
        "gap": 1,
        "lisc": 0
      }
    },
    {
      "type": "Feature",
      "geometry": {
        "type": "Polygon",
        "coordinates": [
          [
            [
              -72.95762,
              41.32499
            ],
            [
              -72.95653,
              41.31401
            ],
            [
              -72.9446,
              41.31129
            ],
            [
              -72.94241,
              41.31666
            ],
            [
              -72.94909,
              41.31906
            ],
            [
              -72.95762,
              41.32499
            ]
          ]
        ]
      },
      "properties": {
        "geoid": "09009140900",
        "name": "Census Tract 1409",
        "town": "",
        "total": 2,
        "gap": 2,
        "lisc": 0
      }
    },
    {
      "type": "Feature",
      "geometry": {
        "type": "Polygon",
        "coordinates": [
          [
            [
              -72.99786,
              41.31572
            ],
            [
              -72.99805,
              41.3141
            ],
            [
              -72.97018,
              41.31161
            ],
            [
              -72.97098,
              41.31804
            ],
            [
              -72.96813,
              41.32725
            ],
            [
              -72.97329,
              41.32722
            ],
            [
              -72.9873,
              41.33124
            ],
            [
              -72.98874,
              41.33019
            ],
            [
              -72.98894,
              41.32889
            ],
            [
              -72.99681,
              41.3236
            ],
            [
              -72.99786,
              41.31572
            ]
          ]
        ]
      },
      "properties": {
        "geoid": "09009141100",
        "name": "Census Tract 1411",
        "town": "",
        "total": 1,
        "gap": 0,
        "lisc": 1
      }
    },
    {
      "type": "Feature",
      "geometry": {
        "type": "Polygon",
        "coordinates": [
          [
            [
              -72.97283,
              41.3474
            ],
            [
              -72.96964,
              41.34153
            ],
            [
              -72.97103,
              41.34095
            ],
            [
              -72.97099,
              41.34013
            ],
            [
              -72.96829,
              41.33772
            ],
            [
              -72.96805,
              41.33565
            ],
            [
              -72.96589,
              41.33164
            ],
            [
              -72.9664,
              41.33069
            ],
            [
              -72.96421,
              41.33043
            ],
            [
              -72.96525,
              41.32885
            ],
            [
              -72.96525,
              41.32688
            ],
            [
              -72.95899,
              41.32609
            ],
            [
              -72.95344,
              41.32217
            ],
            [
              -72.95084,
              41.32394
            ],
            [
              -72.94852,
              41.32727
            ],
            [
              -72.95172,
              41.32843
            ],
            [
              -72.94971,
              41.33148
            ],
            [
              -72.94536,
              41.33094
            ],
            [
              -72.94236,
              41.32899
            ],
            [
              -72.93918,
              41.3327
            ],
            [
              -72.93923,
              41.33529
            ],
            [
              -72.94065,
              41.3354
            ],
            [
              -72.94054,
              41.3359
            ],
            [
              -72.95397,
              41.33737
            ],
            [
              -72.95699,
              41.33985
            ],
            [
              -72.95518,
              41.34235
            ],
            [
              -72.95136,
              41.34395
            ],
            [
              -72.95148,
              41.34711
            ],
            [
              -72.95392,
              41.34741
            ],
            [
              -72.95281,
              41.34908
            ],
            [
              -72.95467,
              41.35016
            ],
            [
              -72.95774,
              41.35039
            ],
            [
              -72.95864,
              41.34908
            ],
            [
              -72.96125,
              41.34901
            ],
            [
              -72.96206,
              41.3463
            ],
            [
              -72.96419,
              41.34642
            ],
            [
              -72.96446,
              41.34379
            ],
            [
              -72.96684,
              41.34544
            ],
            [
              -72.96783,
              41.34791
            ],
            [
              -72.97283,
              41.3474
            ]
          ]
        ]
      },
      "properties": {
        "geoid": "09009141301",
        "name": "Census Tract 1413.01",
        "town": "",
        "total": 1,
        "gap": 1,
        "lisc": 0
      }
    },
    {
      "type": "Feature",
      "geometry": {
        "type": "Polygon",
        "coordinates": [
          [
            [
              -72.95344,
              41.32217
            ],
            [
              -72.94909,
              41.31906
            ],
            [
              -72.94241,
              41.31666
            ],
            [
              -72.94043,
              41.31991
            ],
            [
              -72.94131,
              41.32058
            ],
            [
              -72.94041,
              41.32286
            ],
            [
              -72.94094,
              41.32695
            ],
            [
              -72.94236,
              41.32899
            ],
            [
              -72.94536,
              41.33094
            ],
            [
              -72.94971,
              41.33148
            ],
            [
              -72.95172,
              41.32843
            ],
            [
              -72.94852,
              41.32727
            ],
            [
              -72.95084,
              41.32394
            ],
            [
              -72.95344,
              41.32217
            ]
          ]
        ]
      },
      "properties": {
        "geoid": "09009141400",
        "name": "Census Tract 1414",
        "town": "",
        "total": 4,
        "gap": 4,
        "lisc": 0
      }
    },
    {
      "type": "Feature",
      "geometry": {
        "type": "Polygon",
        "coordinates": [
          [
            [
              -72.94236,
              41.32899
            ],
            [
              -72.94094,
              41.32695
            ],
            [
              -72.94053,
              41.32355
            ],
            [
              -72.92898,
              41.32152
            ],
            [
              -72.9249,
              41.33449
            ],
            [
              -72.94055,
              41.33585
            ],
            [
              -72.93923,
              41.33529
            ],
            [
              -72.93918,
              41.3327
            ],
            [
              -72.94236,
              41.32899
            ]
          ]
        ]
      },
      "properties": {
        "geoid": "09009141500",
        "name": "Census Tract 1415",
        "town": "",
        "total": 3,
        "gap": 3,
        "lisc": 0
      }
    },
    {
      "type": "Feature",
      "geometry": {
        "type": "Polygon",
        "coordinates": [
          [
            [
              -72.94241,
              41.31666
            ],
            [
              -72.93217,
              41.31291
            ],
            [
              -72.93245,
              41.31383
            ],
            [
              -72.92898,
              41.31564
            ],
            [
              -72.92675,
              41.31524
            ],
            [
              -72.9272,
              41.31614
            ],
            [
              -72.92571,
              41.31624
            ],
            [
              -72.92589,
              41.32135
            ],
            [
              -72.94053,
              41.32355
            ],
            [
              -72.94131,
              41.32058
            ],
            [
              -72.94043,
              41.31991
            ],
            [
              -72.94241,
              41.31666
            ]
          ]
        ]
      },
      "properties": {
        "geoid": "09009141600",
        "name": "Census Tract 1416",
        "town": "",
        "total": 1,
        "gap": 1,
        "lisc": 0
      }
    },
    {
      "type": "Feature",
      "geometry": {
        "type": "Polygon",
        "coordinates": [
          [
            [
              -72.91848,
              41.32048
            ],
            [
              -72.91891,
              41.31964
            ],
            [
              -72.90958,
              41.31575
            ],
            [
              -72.90458,
              41.31751
            ],
            [
              -72.90311,
              41.32113
            ],
            [
              -72.90556,
              41.32311
            ],
            [
              -72.90703,
              41.32583
            ],
            [
              -72.90869,
              41.32607
            ],
            [
              -72.90792,
              41.32704
            ],
            [
              -72.90877,
              41.32912
            ],
            [
              -72.90853,
              41.33085
            ],
            [
              -72.91253,
              41.33319
            ],
            [
              -72.91848,
              41.32048
            ]
          ]
        ]
      },
      "properties": {
        "geoid": "09009141900",
        "name": "Census Tract 1419",
        "town": "",
        "total": 1,
        "gap": 1,
        "lisc": 0
      }
    },
    {
      "type": "Feature",
      "geometry": {
        "type": "Polygon",
        "coordinates": [
          [
            [
              -72.90875,
              41.32959
            ],
            [
              -72.90765,
              41.32678
            ],
            [
              -72.90464,
              41.32498
            ],
            [
              -72.90318,
              41.32519
            ],
            [
              -72.90131,
              41.32418
            ],
            [
              -72.90028,
              41.32195
            ],
            [
              -72.89802,
              41.32005
            ],
            [
              -72.89866,
              41.31943
            ],
            [
              -72.89773,
              41.31885
            ],
            [
              -72.89548,
              41.30899
            ],
            [
              -72.88787,
              41.30897
            ],
            [
              -72.88515,
              41.31221
            ],
            [
              -72.88503,
              41.31562
            ],
            [
              -72.88416,
              41.31743
            ],
            [
              -72.88481,
              41.31847
            ],
            [
              -72.89137,
              41.32184
            ],
            [
              -72.89124,
              41.32353
            ],
            [
              -72.88947,
              41.325
            ],
            [
              -72.89169,
              41.32847
            ],
            [
              -72.89289,
              41.32802
            ],
            [
              -72.89331,
              41.3289
            ],
            [
              -72.90254,
              41.32719
            ],
            [
              -72.90853,
              41.33085
            ],
            [
              -72.90875,
              41.32959
            ]
          ]
        ]
      },
      "properties": {
        "geoid": "09009142500",
        "name": "Census Tract 1425",
        "town": "",
        "total": 2,
        "gap": 2,
        "lisc": 0
      }
    },
    {
      "type": "Feature",
      "geometry": {
        "type": "Polygon",
        "coordinates": [
          [
            [
              -72.89265,
              41.3303
            ],
            [
              -72.88947,
              41.325
            ],
            [
              -72.89124,
              41.32353
            ],
            [
              -72.89137,
              41.32184
            ],
            [
              -72.88481,
              41.31847
            ],
            [
              -72.88416,
              41.31743
            ],
            [
              -72.88503,
              41.31562
            ],
            [
              -72.88515,
              41.31221
            ],
            [
              -72.88787,
              41.30897
            ],
            [
              -72.88624,
              41.30824
            ],
            [
              -72.87898,
              41.31353
            ],
            [
              -72.874,
              41.32088
            ],
            [
              -72.87051,
              41.32011
            ],
            [
              -72.86757,
              41.32043
            ],
            [
              -72.86031,
              41.33664
            ],
            [
              -72.88884,
              41.3326
            ],
            [
              -72.88964,
              41.3314
            ],
            [
              -72.89265,
              41.3303
            ]
          ]
        ]
      },
      "properties": {
        "geoid": "09009142601",
        "name": "Census Tract 1426.01",
        "town": "",
        "total": 1,
        "gap": 1,
        "lisc": 0
      }
    },
    {
      "type": "Feature",
      "geometry": {
        "type": "Polygon",
        "coordinates": [
          [
            [
              -72.89292,
              41.30208
            ],
            [
              -72.89209,
              41.30075
            ],
            [
              -72.89025,
              41.30006
            ],
            [
              -72.88926,
              41.29798
            ],
            [
              -72.88252,
              41.29323
            ],
            [
              -72.87364,
              41.30685
            ],
            [
              -72.8738,
              41.30856
            ],
            [
              -72.87849,
              41.3094
            ],
            [
              -72.88147,
              41.30799
            ],
            [
              -72.88484,
              41.30941
            ],
            [
              -72.88624,
              41.30824
            ],
            [
              -72.88787,
              41.30897
            ],
            [
              -72.89086,
              41.30355
            ],
            [
              -72.89292,
              41.30208
            ]
          ]
        ]
      },
      "properties": {
        "geoid": "09009142604",
        "name": "Census Tract 1426.04",
        "town": "",
        "total": 2,
        "gap": 2,
        "lisc": 0
      }
    },
    {
      "type": "Feature",
      "geometry": {
        "type": "Polygon",
        "coordinates": [
          [
            [
              -72.97512,
              41.29569
            ],
            [
              -72.9735,
              41.29079
            ],
            [
              -72.97183,
              41.28836
            ],
            [
              -72.96027,
              41.29292
            ],
            [
              -72.95762,
              41.29585
            ],
            [
              -72.95108,
              41.29726
            ],
            [
              -72.95264,
              41.29944
            ],
            [
              -72.9563,
              41.3016
            ],
            [
              -72.95687,
              41.30301
            ],
            [
              -72.95674,
              41.30526
            ],
            [
              -72.95597,
              41.30514
            ],
            [
              -72.95743,
              41.30665
            ],
            [
              -72.9563,
              41.31046
            ],
            [
              -72.97018,
              41.31161
            ],
            [
              -72.96944,
              41.30776
            ],
            [
              -72.96527,
              41.30451
            ],
            [
              -72.96349,
              41.30167
            ],
            [
              -72.97109,
              41.2995
            ],
            [
              -72.97039,
              41.29757
            ],
            [
              -72.97512,
              41.29569
            ]
          ]
        ]
      },
      "properties": {
        "geoid": "09009154101",
        "name": "Census Tract 1541.01",
        "town": "",
        "total": 3,
        "gap": 3,
        "lisc": 0
      }
    },
    {
      "type": "Feature",
      "geometry": {
        "type": "Polygon",
        "coordinates": [
          [
            [
              -72.93202,
              41.34522
            ],
            [
              -72.92812,
              41.3436
            ],
            [
              -72.92636,
              41.34366
            ],
            [
              -72.92586,
              41.34172
            ],
            [
              -72.92648,
              41.33978
            ],
            [
              -72.92468,
              41.33936
            ],
            [
              -72.9249,
              41.33449
            ],
            [
              -72.91253,
              41.33319
            ],
            [
              -72.9114,
              41.33619
            ],
            [
              -72.91292,
              41.34016
            ],
            [
              -72.91208,
              41.34361
            ],
            [
              -72.91339,
              41.34883
            ],
            [
              -72.91309,
              41.35439
            ],
            [
              -72.91176,
              41.35598
            ],
            [
              -72.91591,
              41.35726
            ],
            [
              -72.92102,
              41.35631
            ],
            [
              -72.92388,
              41.35826
            ],
            [
              -72.93202,
              41.34522
            ]
          ]
        ]
      },
      "properties": {
        "geoid": "09009165400",
        "name": "Census Tract 1654",
        "town": "",
        "total": 4,
        "gap": 4,
        "lisc": 0
      }
    },
    {
      "type": "Feature",
      "geometry": {
        "type": "Polygon",
        "coordinates": [
          [
            [
              -72.943,
              41.33633
            ],
            [
              -72.9249,
              41.33449
            ],
            [
              -72.92468,
              41.33936
            ],
            [
              -72.92648,
              41.33978
            ],
            [
              -72.92586,
              41.34172
            ],
            [
              -72.92636,
              41.34366
            ],
            [
              -72.92849,
              41.34371
            ],
            [
              -72.93977,
              41.3483
            ],
            [
              -72.94138,
              41.34191
            ],
            [
              -72.94102,
              41.33841
            ],
            [
              -72.943,
              41.33633
            ]
          ]
        ]
      },
      "properties": {
        "geoid": "09009165500",
        "name": "Census Tract 1655",
        "town": "",
        "total": 1,
        "gap": 1,
        "lisc": 0
      }
    },
    {
      "type": "Feature",
      "geometry": {
        "type": "Polygon",
        "coordinates": [
          [
            [
              -72.96767,
              41.34728
            ],
            [
              -72.96684,
              41.34544
            ],
            [
              -72.96446,
              41.34379
            ],
            [
              -72.96419,
              41.34642
            ],
            [
              -72.96206,
              41.3463
            ],
            [
              -72.96125,
              41.34901
            ],
            [
              -72.95864,
              41.34908
            ],
            [
              -72.95774,
              41.35039
            ],
            [
              -72.95467,
              41.35016
            ],
            [
              -72.95281,
              41.34908
            ],
            [
              -72.95392,
              41.34741
            ],
            [
              -72.95148,
              41.34711
            ],
            [
              -72.95136,
              41.34395
            ],
            [
              -72.95518,
              41.34235
            ],
            [
              -72.95699,
              41.33985
            ],
            [
              -72.95397,
              41.33737
            ],
            [
              -72.94685,
              41.3366
            ],
            [
              -72.94311,
              41.33627
            ],
            [
              -72.94102,
              41.33841
            ],
            [
              -72.94138,
              41.34191
            ],
            [
              -72.93977,
              41.3483
            ],
            [
              -72.94426,
              41.34981
            ],
            [
              -72.94178,
              41.35403
            ],
            [
              -72.94156,
              41.357
            ],
            [
              -72.94352,
              41.35741
            ],
            [
              -72.94901,
              41.3554
            ],
            [
              -72.96061,
              41.35288
            ],
            [
              -72.96767,
              41.34728
            ]
          ]
        ]
      },
      "properties": {
        "geoid": "09009165700",
        "name": "Census Tract 1657",
        "town": "",
        "total": 2,
        "gap": 2,
        "lisc": 0
      }
    },
    {
      "type": "Feature",
      "geometry": {
        "type": "Polygon",
        "coordinates": [
          [
            [
              -72.9754,
              41.35994
            ],
            [
              -72.97482,
              41.35261
            ],
            [
              -72.97315,
              41.34745
            ],
            [
              -72.96833,
              41.34798
            ],
            [
              -72.96767,
              41.34728
            ],
            [
              -72.96061,
              41.35288
            ],
            [
              -72.94755,
              41.35583
            ],
            [
              -72.9327,
              41.36182
            ],
            [
              -72.92858,
              41.36437
            ],
            [
              -72.94219,
              41.36699
            ],
            [
              -72.94235,
              41.36855
            ],
            [
              -72.93234,
              41.38552
            ],
            [
              -72.93726,
              41.38528
            ],
            [
              -72.93979,
              41.40055
            ],
            [
              -72.94261,
              41.40219
            ],
            [
              -72.94403,
              41.40543
            ],
            [
              -72.94256,
              41.40713
            ],
            [
              -72.95352,
              41.39974
            ],
            [
              -72.95291,
              41.39695
            ],
            [
              -72.95362,
              41.39555
            ],
            [
              -72.95703,
              41.39297
            ],
            [
              -72.96335,
              41.38438
            ],
            [
              -72.97411,
              41.36527
            ],
            [
              -72.9754,
              41.35994
            ]
          ]
        ]
      },
      "properties": {
        "geoid": "09009165802",
        "name": "Census Tract 1658.02",
        "town": "",
        "total": 1,
        "gap": 0,
        "lisc": 1
      }
    },
    {
      "type": "Feature",
      "geometry": {
        "type": "Polygon",
        "coordinates": [
          [
            [
              -72.91799,
              41.45986
            ],
            [
              -72.91545,
              41.4519
            ],
            [
              -72.91574,
              41.4498
            ],
            [
              -72.91275,
              41.4411
            ],
            [
              -72.90932,
              41.43656
            ],
            [
              -72.90817,
              41.43198
            ],
            [
              -72.90944,
              41.4272
            ],
            [
              -72.90607,
              41.42357
            ],
            [
              -72.90371,
              41.41675
            ],
            [
              -72.90394,
              41.414
            ],
            [
              -72.90851,
              41.40935
            ],
            [
              -72.90178,
              41.40822
            ],
            [
              -72.90442,
              41.39391
            ],
            [
              -72.89734,
              41.39275
            ],
            [
              -72.89907,
              41.38314
            ],
            [
              -72.8965,
              41.38288
            ],
            [
              -72.89349,
              41.38614
            ],
            [
              -72.89284,
              41.38947
            ],
            [
              -72.89081,
              41.39337
            ],
            [
              -72.88718,
              41.39364
            ],
            [
              -72.88752,
              41.39683
            ],
            [
              -72.88581,
              41.40504
            ],
            [
              -72.88637,
              41.41129
            ],
            [
              -72.88457,
              41.41141
            ],
            [
              -72.88315,
              41.42331
            ],
            [
              -72.87778,
              41.42432
            ],
            [
              -72.87404,
              41.42633
            ],
            [
              -72.86409,
              41.42657
            ],
            [
              -72.86178,
              41.42593
            ],
            [
              -72.85849,
              41.42944
            ],
            [
              -72.85436,
              41.43084
            ],
            [
              -72.85136,
              41.43438
            ],
            [
              -72.91799,
              41.45986
            ]
          ]
        ]
      },
      "properties": {
        "geoid": "09009166002",
        "name": "Census Tract 1660.02",
        "town": "",
        "total": 1,
        "gap": 1,
        "lisc": 0
      }
    },
    {
      "type": "Feature",
      "geometry": {
        "type": "Polygon",
        "coordinates": [
          [
            [
              -72.82706,
              41.51588
            ],
            [
              -72.82636,
              41.51374
            ],
            [
              -72.82275,
              41.51279
            ],
            [
              -72.82359,
              41.51103
            ],
            [
              -72.823,
              41.51011
            ],
            [
              -72.81519,
              41.50852
            ],
            [
              -72.814,
              41.5134
            ],
            [
              -72.80551,
              41.51427
            ],
            [
              -72.7993,
              41.52604
            ],
            [
              -72.80116,
              41.52581
            ],
            [
              -72.79812,
              41.53181
            ],
            [
              -72.80374,
              41.53366
            ],
            [
              -72.80482,
              41.5332
            ],
            [
              -72.80744,
              41.52634
            ],
            [
              -72.80959,
              41.52442
            ],
            [
              -72.80842,
              41.52696
            ],
            [
              -72.80887,
              41.52812
            ],
            [
              -72.81256,
              41.52834
            ],
            [
              -72.81477,
              41.52489
            ],
            [
              -72.81858,
              41.5272
            ],
            [
              -72.82314,
              41.52854
            ],
            [
              -72.82517,
              41.52451
            ],
            [
              -72.82538,
              41.51806
            ],
            [
              -72.82706,
              41.51588
            ]
          ]
        ]
      },
      "properties": {
        "geoid": "09009170800",
        "name": "Census Tract 1708",
        "town": "",
        "total": 1,
        "gap": 1,
        "lisc": 0
      }
    },
    {
      "type": "Feature",
      "geometry": {
        "type": "Polygon",
        "coordinates": [
          [
            [
              -72.7963,
              41.5441
            ],
            [
              -72.78575,
              41.54267
            ],
            [
              -72.78195,
              41.54888
            ],
            [
              -72.7838,
              41.55217
            ],
            [
              -72.78642,
              41.55417
            ],
            [
              -72.79176,
              41.55498
            ],
            [
              -72.79328,
              41.54834
            ],
            [
              -72.7963,
              41.5441
            ]
          ]
        ]
      },
      "properties": {
        "geoid": "09009171500",
        "name": "Census Tract 1715",
        "town": "",
        "total": 1,
        "gap": 1,
        "lisc": 0
      }
    },
    {
      "type": "Feature",
      "geometry": {
        "type": "Polygon",
        "coordinates": [
          [
            [
              -72.88106,
              41.24306
            ],
            [
              -72.8803,
              41.2392
            ],
            [
              -72.86204,
              41.23925
            ],
            [
              -72.85724,
              41.2522
            ],
            [
              -72.85224,
              41.2591
            ],
            [
              -72.85193,
              41.26218
            ],
            [
              -72.85334,
              41.26413
            ],
            [
              -72.85643,
              41.26453
            ],
            [
              -72.85797,
              41.26568
            ],
            [
              -72.8604,
              41.26547
            ],
            [
              -72.86065,
              41.26649
            ],
            [
              -72.86225,
              41.26676
            ],
            [
              -72.8627,
              41.26617
            ],
            [
              -72.86279,
              41.26696
            ],
            [
              -72.86464,
              41.26606
            ],
            [
              -72.8671,
              41.26791
            ],
            [
              -72.86741,
              41.26681
            ],
            [
              -72.86863,
              41.26733
            ],
            [
              -72.8691,
              41.26612
            ],
            [
              -72.87036,
              41.26569
            ],
            [
              -72.87254,
              41.26651
            ],
            [
              -72.87328,
              41.26105
            ],
            [
              -72.87108,
              41.24983
            ],
            [
              -72.87501,
              41.24867
            ],
            [
              -72.87481,
              41.24538
            ],
            [
              -72.88048,
              41.24391
            ],
            [
              -72.88106,
              41.24306
            ]
          ]
        ]
      },
      "properties": {
        "geoid": "09009180102",
        "name": "Census Tract 1801.02",
        "town": "",
        "total": 1,
        "gap": 1,
        "lisc": 0
      }
    },
    {
      "type": "Feature",
      "geometry": {
        "type": "Polygon",
        "coordinates": [
          [
            [
              -72.87364,
              41.30685
            ],
            [
              -72.8705,
              41.30568
            ],
            [
              -72.86895,
              41.30711
            ],
            [
              -72.86602,
              41.305
            ],
            [
              -72.8629,
              41.30441
            ],
            [
              -72.86047,
              41.30291
            ],
            [
              -72.85457,
              41.30388
            ],
            [
              -72.84882,
              41.31232
            ],
            [
              -72.84919,
              41.31442
            ],
            [
              -72.85176,
              41.31628
            ],
            [
              -72.85122,
              41.32237
            ],
            [
              -72.8501,
              41.32438
            ],
            [
              -72.85092,
              41.32733
            ],
            [
              -72.85367,
              41.32788
            ],
            [
              -72.85729,
              41.33095
            ],
            [
              -72.86259,
              41.33157
            ],
            [
              -72.87364,
              41.30685
            ]
          ]
        ]
      },
      "properties": {
        "geoid": "09009180500",
        "name": "Census Tract 1805",
        "town": "",
        "total": 1,
        "gap": 1,
        "lisc": 0
      }
    },
    {
      "type": "Feature",
      "geometry": {
        "type": "Polygon",
        "coordinates": [
          [
            [
              -73.06989,
              41.51429
            ],
            [
              -73.06599,
              41.51291
            ],
            [
              -73.06152,
              41.50925
            ],
            [
              -73.05957,
              41.50649
            ],
            [
              -73.05826,
              41.50161
            ],
            [
              -73.05286,
              41.49814
            ],
            [
              -73.0531,
              41.49607
            ],
            [
              -73.05203,
              41.49434
            ],
            [
              -73.05061,
              41.49517
            ],
            [
              -73.04912,
              41.49386
            ],
            [
              -73.04891,
              41.49578
            ],
            [
              -73.04724,
              41.49828
            ],
            [
              -73.0441,
              41.49975
            ],
            [
              -73.03879,
              41.49778
            ],
            [
              -73.03248,
              41.49299
            ],
            [
              -73.0326,
              41.49238
            ],
            [
              -73.02996,
              41.49158
            ],
            [
              -73.02675,
              41.49158
            ],
            [
              -73.01696,
              41.49703
            ],
            [
              -73.01132,
              41.49759
            ],
            [
              -73.01817,
              41.51983
            ],
            [
              -73.04755,
              41.5152
            ],
            [
              -73.06989,
              41.51429
            ]
          ]
        ]
      },
      "properties": {
        "geoid": "09009345100",
        "name": "Census Tract 3451",
        "town": "",
        "total": 1,
        "gap": 1,
        "lisc": 0
      }
    },
    {
      "type": "Feature",
      "geometry": {
        "type": "Polygon",
        "coordinates": [
          [
            [
              -73.10187,
              41.49695
            ],
            [
              -73.09382,
              41.49785
            ],
            [
              -73.08878,
              41.4968
            ],
            [
              -73.08465,
              41.49411
            ],
            [
              -73.08125,
              41.49365
            ],
            [
              -73.07234,
              41.48995
            ],
            [
              -73.06832,
              41.4892
            ],
            [
              -73.0654,
              41.49263
            ],
            [
              -73.06472,
              41.49457
            ],
            [
              -73.05619,
              41.49478
            ],
            [
              -73.05321,
              41.49706
            ],
            [
              -73.05286,
              41.49814
            ],
            [
              -73.05787,
              41.50106
            ],
            [
              -73.06062,
              41.50816
            ],
            [
              -73.06715,
              41.51352
            ],
            [
              -73.07011,
              41.5143
            ],
            [
              -73.08843,
              41.51407
            ],
            [
              -73.09469,
              41.51381
            ],
            [
              -73.09605,
              41.50805
            ],
            [
              -73.09531,
              41.50157
            ],
            [
              -73.10187,
              41.49695
            ]
          ]
        ]
      },
      "properties": {
        "geoid": "09009345400",
        "name": "Census Tract 3454",
        "town": "",
        "total": 1,
        "gap": 1,
        "lisc": 0
      }
    },
    {
      "type": "Feature",
      "geometry": {
        "type": "Polygon",
        "coordinates": [
          [
            [
              -73.0405,
              41.56557
            ],
            [
              -73.03867,
              41.56275
            ],
            [
              -73.03856,
              41.56003
            ],
            [
              -73.03503,
              41.55991
            ],
            [
              -73.03224,
              41.56353
            ],
            [
              -73.02738,
              41.56655
            ],
            [
              -73.0295,
              41.56964
            ],
            [
              -73.0337,
              41.56971
            ],
            [
              -73.03352,
              41.56917
            ],
            [
              -73.03818,
              41.5677
            ],
            [
              -73.03827,
              41.56689
            ],
            [
              -73.0405,
              41.56557
            ]
          ]
        ]
      },
      "properties": {
        "geoid": "09009350200",
        "name": "Census Tract 3502",
        "town": "",
        "total": 1,
        "gap": 0,
        "lisc": 1
      }
    },
    {
      "type": "Feature",
      "geometry": {
        "type": "Polygon",
        "coordinates": [
          [
            [
              -73.04251,
              41.58469
            ],
            [
              -73.0409,
              41.57832
            ],
            [
              -73.04183,
              41.57604
            ],
            [
              -73.04195,
              41.57215
            ],
            [
              -73.04075,
              41.57003
            ],
            [
              -73.0405,
              41.56557
            ],
            [
              -73.03827,
              41.56689
            ],
            [
              -73.03818,
              41.5677
            ],
            [
              -73.03352,
              41.56917
            ],
            [
              -73.0337,
              41.56971
            ],
            [
              -73.0295,
              41.56964
            ],
            [
              -73.02704,
              41.56671
            ],
            [
              -73.02589,
              41.5689
            ],
            [
              -73.0263,
              41.57657
            ],
            [
              -73.02941,
              41.579
            ],
            [
              -73.04083,
              41.58475
            ],
            [
              -73.04238,
              41.58523
            ],
            [
              -73.04251,
              41.58469
            ]
          ]
        ]
      },
      "properties": {
        "geoid": "09009351000",
        "name": "Census Tract 3510",
        "town": "",
        "total": 1,
        "gap": 0,
        "lisc": 1
      }
    },
    {
      "type": "Feature",
      "geometry": {
        "type": "Polygon",
        "coordinates": [
          [
            [
              -73.02681,
              41.54612
            ],
            [
              -73.02506,
              41.54335
            ],
            [
              -73.01997,
              41.54062
            ],
            [
              -73.0094,
              41.5397
            ],
            [
              -73.00872,
              41.54063
            ],
            [
              -73.00873,
              41.54355
            ],
            [
              -73.00993,
              41.54408
            ],
            [
              -73.00876,
              41.54701
            ],
            [
              -73.00886,
              41.54993
            ],
            [
              -73.00537,
              41.55383
            ],
            [
              -73.00475,
              41.55574
            ],
            [
              -73.00506,
              41.55983
            ],
            [
              -73.00859,
              41.56526
            ],
            [
              -73.01373,
              41.55644
            ],
            [
              -73.01726,
              41.55219
            ],
            [
              -73.01957,
              41.55077
            ],
            [
              -73.01918,
              41.54991
            ],
            [
              -73.0204,
              41.54846
            ],
            [
              -73.01781,
              41.54686
            ],
            [
              -73.02681,
              41.54612
            ]
          ]
        ]
      },
      "properties": {
        "geoid": "09009351300",
        "name": "Census Tract 3513",
        "town": "",
        "total": 1,
        "gap": 1,
        "lisc": 0
      }
    },
    {
      "type": "Feature",
      "geometry": {
        "type": "Polygon",
        "coordinates": [
          [
            [
              -73.03757,
              41.54246
            ],
            [
              -73.03626,
              41.53918
            ],
            [
              -73.02867,
              41.53755
            ],
            [
              -73.02751,
              41.53805
            ],
            [
              -73.02259,
              41.53442
            ],
            [
              -73.02168,
              41.53176
            ],
            [
              -73.01721,
              41.53689
            ],
            [
              -73.01897,
              41.5378
            ],
            [
              -73.01755,
              41.5388
            ],
            [
              -73.01774,
              41.54001
            ],
            [
              -73.02443,
              41.54285
            ],
            [
              -73.02689,
              41.54608
            ],
            [
              -73.02987,
              41.54374
            ],
            [
              -73.03745,
              41.54392
            ],
            [
              -73.03757,
              41.54246
            ]
          ]
        ]
      },
      "properties": {
        "geoid": "09009351400",
        "name": "Census Tract 3514",
        "town": "",
        "total": 1,
        "gap": 0,
        "lisc": 1
      }
    },
    {
      "type": "Feature",
      "geometry": {
        "type": "Polygon",
        "coordinates": [
          [
            [
              -73.05831,
              41.55034
            ],
            [
              -73.05156,
              41.53544
            ],
            [
              -73.04985,
              41.53365
            ],
            [
              -73.05005,
              41.52866
            ],
            [
              -73.04666,
              41.52793
            ],
            [
              -73.04461,
              41.53051
            ],
            [
              -73.04406,
              41.53704
            ],
            [
              -73.04606,
              41.53845
            ],
            [
              -73.04665,
              41.53981
            ],
            [
              -73.04826,
              41.53882
            ],
            [
              -73.05421,
              41.54918
            ],
            [
              -73.04962,
              41.55083
            ],
            [
              -73.05344,
              41.55152
            ],
            [
              -73.05831,
              41.55034
            ]
          ]
        ]
      },
      "properties": {
        "geoid": "09009351601",
        "name": "Census Tract 3516.01",
        "town": "",
        "total": 1,
        "gap": 0,
        "lisc": 1
      }
    },
    {
      "type": "Feature",
      "geometry": {
        "type": "Polygon",
        "coordinates": [
          [
            [
              -73.02791,
              41.51796
            ],
            [
              -73.0189,
              41.51944
            ],
            [
              -73.00508,
              41.52369
            ],
            [
              -72.97831,
              41.53393
            ],
            [
              -72.96936,
              41.53023
            ],
            [
              -72.96603,
              41.53659
            ],
            [
              -72.98094,
              41.54297
            ],
            [
              -72.98425,
              41.54364
            ],
            [
              -72.98728,
              41.54335
            ],
            [
              -73.00331,
              41.53793
            ],
            [
              -73.00966,
              41.53978
            ],
            [
              -73.01774,
              41.54001
            ],
            [
              -73.01755,
              41.5388
            ],
            [
              -73.01897,
              41.5378
            ],
            [
              -73.01721,
              41.53689
            ],
            [
              -73.02079,
              41.53325
            ],
            [
              -73.022,
              41.52987
            ],
            [
              -73.02661,
              41.52844
            ],
            [
              -73.02783,
              41.52635
            ],
            [
              -73.02791,
              41.51796
            ]
          ]
        ]
      },
      "properties": {
        "geoid": "09009352800",
        "name": "Census Tract 3528",
        "town": "",
        "total": 1,
        "gap": 1,
        "lisc": 0
      }
    }
  ]
}