{
  "type": "FeatureCollection",
  "features": [
    {
      "type": "Feature",
      "geometry": {
        "type": "Point",
        "coordinates": [
          -73.3896381045345,
          41.371332558770405
        ]
      },
      "properties": {
        "name": "Bethel",
        "town": "Bethel",
        "total": 1,
        "gap": 0,
        "lisc": 1
      }
    },
    {
      "type": "Feature",
      "geometry": {
        "type": "Point",
        "coordinates": [
          -73.19529452917867,
          41.19792558789956
        ]
      },
      "properties": {
        "name": "Bridgeport",
        "town": "Bridgeport",
        "total": 1,
        "gap": 0,
        "lisc": 1
      }
    },
    {
      "type": "Feature",
      "geometry": {
        "type": "Point",
        "coordinates": [
          -73.46917260805785,
          41.40679682045557
        ]
      },
      "properties": {
        "name": "Danbury",
        "town": "Danbury",
        "total": 1,
        "gap": 0,
        "lisc": 1
      }
    },
    {
      "type": "Feature",
      "geometry": {
        "type": "Point",
        "coordinates": [
          -73.08234969080596,
          41.32257623519453
        ]
      },
      "properties": {
        "name": "Derby",
        "town": "Derby",
        "total": 1,
        "gap": 1,
        "lisc": 0
      }
    },
    {
      "type": "Feature",
      "geometry": {
        "type": "Point",
        "coordinates": [
          -72.93088780735344,
          41.38141960995226
        ]
      },
      "properties": {
        "name": "Hamden",
        "town": "Hamden",
        "total": 10,
        "gap": 9,
        "lisc": 1
      }
    },
    {
      "type": "Feature",
      "geometry": {
        "type": "Point",
        "coordinates": [
          -72.69027319105756,
          41.76553959563735
        ]
      },
      "properties": {
        "name": "Hartford",
        "town": "Hartford",
        "total": 2,
        "gap": 0,
        "lisc": 2
      }
    },
    {
      "type": "Feature",
      "geometry": {
        "type": "Point",
        "coordinates": [
          -72.78398800909159,
          41.53784535685121
        ]
      },
      "properties": {
        "name": "Meriden",
        "town": "Meriden",
        "total": 2,
        "gap": 2,
        "lisc": 0
      }
    },
    {
      "type": "Feature",
      "geometry": {
        "type": "Point",
        "coordinates": [
          -73.05177296096022,
          41.49174895387792
        ]
      },
      "properties": {
        "name": "Naugatuck",
        "town": "Naugatuck",
        "total": 2,
        "gap": 2,
        "lisc": 0
      }
    },
    {
      "type": "Feature",
      "geometry": {
        "type": "Point",
        "coordinates": [
          -72.78518154515427,
          41.675241516226855
        ]
      },
      "properties": {
        "name": "New Britain",
        "town": "New Britain",
        "total": 3,
        "gap": 2,
        "lisc": 1
      }
    },
    {
      "type": "Feature",
      "geometry": {
        "type": "Point",
        "coordinates": [
          -72.93154666389306,
          41.311405843199175
        ]
      },
      "properties": {
        "name": "New Haven",
        "town": "New Haven",
        "total": 21,
        "gap": 20,
        "lisc": 1
      }
    },
    {
      "type": "Feature",
      "geometry": {
        "type": "Point",
        "coordinates": [
          -73.42722083382813,
          41.125049821776415
        ]
      },
      "properties": {
        "name": "Norwalk",
        "town": "Norwalk",
        "total": 3,
        "gap": 1,
        "lisc": 2
      }
    },
    {
      "type": "Feature",
      "geometry": {
        "type": "Point",
        "coordinates": [
          -73.13418191869434,
          41.21161602284563
        ]
      },
      "properties": {
        "name": "Stratford",
        "town": "Stratford",
        "total": 4,
        "gap": 2,
        "lisc": 2
      }
    },
    {
      "type": "Feature",
      "geometry": {
        "type": "Point",
        "coordinates": [
          -73.12806843293583,
          41.835342215679205
        ]
      },
      "properties": {
        "name": "Torrington",
        "town": "Torrington",
        "total": 1,
        "gap": 0,
        "lisc": 1
      }
    },
    {
      "type": "Feature",
      "geometry": {
        "type": "Point",
        "coordinates": [
          -73.03708061211533,
          41.5565704655901
        ]
      },
      "properties": {
        "name": "Waterbury",
        "town": "Waterbury",
        "total": 8,
        "gap": 2,
        "lisc": 6
      }
    },
    {
      "type": "Feature",
      "geometry": {
        "type": "Point",
        "coordinates": [
          -72.95992386908043,
          41.27503821882837
        ]
      },
      "properties": {
        "name": "West Haven",
        "town": "West Haven",
        "total": 3,
        "gap": 3,
        "lisc": 0
      }
    },
    {
      "type": "Feature",
      "geometry": {
        "type": "Point",
        "coordinates": [
          -72.65403211084661,
          41.92546408661594
        ]
      },
      "properties": {
        "name": "Windsor Locks",
        "town": "Windsor Locks",
        "total": 1,
        "gap": 1,
        "lisc": 0
      }
    }
  ]
}