{
  "type": "FeatureCollection",
  "features": [
    {
      "type": "Feature",
      "geometry": {
        "type": "Polygon",
        "coordinates": [
          [
            [
              -73.40690452459187,
              41.428713971884896
            ],
            [
              -73.40580979543529,
              41.41555451720955
            ],
            [
              -73.4053149102112,
              41.41332002778019
            ],
            [
              -73.40084313577607,
              41.40345860531922
            ],
            [
              -73.40190102803159,
              41.40144445449245
            ],
            [
              -73.40567126242992,
              41.4007260319065
            ],
            [
              -73.40656927811217,
              41.398058345516105
            ],
            [
              -73.40780936882429,
              41.39714777475804
            ],
            [
              -73.40752525551856,
              41.39558826909046
            ],
            [
              -73.4228245719696,
              41.38119085541009
            ],
            [
              -73.42487312172227,
              41.381010033019834
            ],
            [
              -73.43263619972947,
              41.37845248990457
            ],
            [
              -73.43489887980063,
              41.3725745630692
            ],
            [
              -73.43034706400948,
              41.35606582649348
            ],
            [
              -73.42431897432594,
              41.33502228511345
            ],
            [
              -73.3941891714296,
              41.34049855583742
            ],
            [
              -73.3718113270454,
              41.344945121904594
            ],
            [
              -73.34679742247656,
              41.349692316626005
            ],
            [
              -73.35544980760142,
              41.369167897884516
            ],
            [
              -73.36170176036208,
              41.382720731208245
            ],
            [
              -73.3741330382751,
              41.410037415922055
            ],
            [
              -73.37871319145653,
              41.41974367724012
            ],
            [
              -73.38041664484348,
              41.42346123530159
            ],
            [
              -73.40690452459187,
              41.428713971884896
            ]
          ]
        ]
      },
      "properties": {
        "name": "Bethel",
        "town": "Bethel",
        "total": 1,
        "gap": 0,
        "lisc": 1
      }
    },
    {
      "type": "Feature",
      "geometry": {
        "type": "Polygon",
        "coordinates": [
          [
            [
              -73.24423900078764,
              41.22675418914002
            ],
            [
              -73.2298165093651,
              41.210273915666676
            ],
            [
              -73.21918960798203,
              41.19754650474266
            ],
            [
              -73.22014445038003,
              41.18743967079052
            ],
            [
              -73.21780191543652,
              41.18280135247737
            ],
            [
              -73.21963981808939,
              41.18149443844199
            ],
            [
              -73.21933332182812,
              41.17900191417798
            ],
            [
              -73.22306713828982,
              41.17632738743241
            ],
            [
              -73.22395192444867,
              41.17408192731871
            ],
            [
              -73.22729242842158,
              41.17133032589317
            ],
            [
              -73.22754568102233,
              41.168958472976826
            ],
            [
              -73.2237322586896,
              41.17018383352401
            ],
            [
              -73.22235129137441,
              41.16885602826156
            ],
            [
              -73.22469636412171,
              41.16677982621644
            ],
            [
              -73.22452895104563,
              41.16595149059524
            ],
            [
              -73.2275057705192,
              41.163935561312094
            ],
            [
              -73.228869992277,
              41.16143160948225
            ],
            [
              -73.2367839122186,
              41.15568587330806
            ],
            [
              -73.23744393586712,
              41.15435142919913
            ],
            [
              -73.23601893008268,
              41.15249667425555
            ],
            [
              -73.23328717165334,
              41.151762416871414
            ],
            [
              -73.23260963040894,
              41.1480623317975
            ],
            [
              -73.23525095498223,
              41.14565668098765
            ],
            [
              -73.23354948991832,
              41.14314488367711
            ],
            [
              -73.22728675720053,
              41.14319419086244
            ],
            [
              -73.2253045968218,
              41.14409134915252
            ],
            [
              -73.22207466233783,
              41.147266482522355
            ],
            [
              -73.22233658672994,
              41.14978354644964
            ],
            [
              -73.21955544074727,
              41.15325350761587
            ],
            [
              -73.21712824209128,
              41.15357616179393
            ],
            [
              -73.21846493317852,
              41.15518209891417
            ],
            [
              -73.21598186486375,
              41.15888197860102
            ],
            [
              -73.21364816972908,
              41.158116124899514
            ],
            [
              -73.21106943246173,
              41.1583824842649
            ],
            [
              -73.2089980214456,
              41.160079585078975
            ],
            [
              -73.20904910068265,
              41.16156659327225
            ],
            [
              -73.20653843295014,
              41.162338263162276
            ],
            [
              -73.20398728115724,
              41.1655233722167
            ],
            [
              -73.20248755920404,
              41.164707318841025
            ],
            [
              -73.205723653982,
              41.16124471543585
            ],
            [
              -73.21507646457371,
              41.154067055340384
            ],
            [
              -73.21586472431527,
              41.152133383170906
            ],
            [
              -73.21556140219957,
              41.147435911897155
            ],
            [
              -73.21626330852155,
              41.141492766514865
            ],
            [
              -73.21296882064523,
              41.14392789979057
            ],
            [
              -73.2142748557299,
              41.147425019905896
            ],
            [
              -73.21347012545553,
              41.150393967863636
            ],
            [
              -73.21092402642422,
              41.15334506920974
            ],
            [
              -73.20579337785092,
              41.15695828039033
            ],
            [
              -73.19718624778989,
              41.1601387428978
            ],
            [
              -73.19066204518958,
              41.16093701197391
            ],
            [
              -73.18810040953807,
              41.16023035406879
            ],
            [
              -73.18555122322587,
              41.158658880554036
            ],
            [
              -73.1840010152519,
              41.16087740803047
            ],
            [
              -73.18242149874192,
              41.16475271480954
            ],
            [
              -73.18111060600448,
              41.16622720555356
            ],
            [
              -73.17860170847406,
              41.16682706105915
            ],
            [
              -73.17796186349187,
              41.16887964578424
            ],
            [
              -73.18140579558526,
              41.17125807833849
            ],
            [
              -73.18363716476003,
              41.17362608707383
            ],
            [
              -73.18329044216232,
              41.17625085963839
            ],
            [
              -73.17944357332081,
              41.1753073444687
            ],
            [
              -73.17745352047673,
              41.17660011353619
            ],
            [
              -73.17557306880741,
              41.175840707819425
            ],
            [
              -73.17711464753945,
              41.17425289157886
            ],
            [
              -73.17744448864276,
              41.172654497327095
            ],
            [
              -73.17526850528583,
              41.17143115806411
            ],
            [
              -73.17246273133104,
              41.17169302806656
            ],
            [
              -73.1733278873127,
              41.169698136210016
            ],
            [
              -73.17137344307363,
              41.16893756362442
            ],
            [
              -73.1700655821915,
              41.17012373604607
            ],
            [
              -73.16829913601079,
              41.16713229428891
            ],
            [
              -73.16520627454463,
              41.166416427888095
            ],
            [
              -73.16389994400511,
              41.16760269710917
            ],
            [
              -73.16439455209944,
              41.16967322175517
            ],
            [
              -73.16330548201081,
              41.17137621583245
            ],
            [
              -73.15993012849994,
              41.172187031777845
            ],
            [
              -73.1623023931666,
              41.168045539596804
            ],
            [
              -73.16157554406634,
              41.167218271627675
            ],
            [
              -73.16283463374191,
              41.16358096376597
            ],
            [
              -73.16493494576561,
              41.16458370296418
            ],
            [
              -73.16692352664639,
              41.16339939570517
            ],
            [
              -73.16839726101948,
              41.16129682413195
            ],
            [
              -73.16927824615334,
              41.15844645635327
            ],
            [
              -73.16400055170145,
              41.15844424793009
            ],
            [
              -73.15906394793153,
              41.17300183668575
            ],
            [
              -73.15920108194064,
              41.17376519245438
            ],
            [
              -73.15582813284087,
              41.1771459834354
            ],
            [
              -73.15403048982989,
              41.183052459017965
            ],
            [
              -73.15524168465956,
              41.18683514823927
            ],
            [
              -73.15471769450996,
              41.18911858524161
            ],
            [
              -73.15556006311796,
              41.19001958962666
            ],
            [
              -73.15372756705835,
              41.19270304180568
            ],
            [
              -73.16277871000835,
              41.220159838712206
            ],
            [
              -73.1613665331718,
              41.223941766499394
            ],
            [
              -73.15898848333,
              41.22597199214007
            ],
            [
              -73.1574378409115,
              41.22866683629501
            ],
            [
              -73.17216507330224,
              41.222280587343036
            ],
            [
              -73.17743616939613,
              41.22232466018193
            ],
            [
              -73.18315109873043,
              41.22074478335365
            ],
            [
              -73.187266810512,
              41.22057989700185
            ],
            [
              -73.19032803146345,
              41.22319298254019
            ],
            [
              -73.19074957934352,
              41.224856274696634
            ],
            [
              -73.19367985755842,
              41.22667333871055
            ],
            [
              -73.1972138707505,
              41.22794129131506
            ],
            [
              -73.20103157255976,
              41.22838602370018
            ],
            [
              -73.20138047980917,
              41.22958779220238
            ],
            [
              -73.2046093261171,
              41.22901666950381
            ],
            [
              -73.20569963526478,
              41.22802823792616
            ],
            [
              -73.20838261743496,
              41.22778114959104
            ],
            [
              -73.21228085901976,
              41.22845538410249
            ],
            [
              -73.21912278386942,
              41.227586855028484
            ],
            [
              -73.23229907693688,
              41.22736878942318
            ],
            [
              -73.24423900078764,
              41.22675418914002
            ]
          ]
        ]
      },
      "properties": {
        "name": "Bridgeport",
        "town": "Bridgeport",
        "total": 1,
        "gap": 0,
        "lisc": 1
      }
    },
    {
      "type": "Feature",
      "geometry": {
        "type": "Polygon",
        "coordinates": [
          [
            [
              -73.42668744037684,
              41.46368295060357
            ],
            [
              -73.46197944266171,
              41.45609403730655
            ],
            [
              -73.49956937787489,
              41.44846329153227
            ],
            [
              -73.5366441696562,
              41.44047977957575
            ],
            [
              -73.53846889403984,
              41.420940688313046
            ],
            [
              -73.5405972779163,
              41.40212672924193
            ],
            [
              -73.54217971135095,
              41.377986798032765
            ],
            [
              -73.54247227964395,
              41.375230924537625
            ],
            [
              -73.50634154473475,
              41.377036669420896
            ],
            [
              -73.50153503442282,
              41.36166052487153
            ],
            [
              -73.48849531034911,
              41.360925455254424
            ],
            [
              -73.47263264863831,
              41.333212065425435
            ],
            [
              -73.46920577516282,
              41.32658108463349
            ],
            [
              -73.44113022959681,
              41.33195940163677
            ],
            [
              -73.42431897432594,
              41.33502228511345
            ],
            [
              -73.43034706400948,
              41.35606582649348
            ],
            [
              -73.43489887980063,
              41.3725745630692
            ],
            [
              -73.43263619972947,
              41.37845248990457
            ],
            [
              -73.42487312172227,
              41.381010033019834
            ],
            [
              -73.4228245719696,
              41.38119085541009
            ],
            [
              -73.40752525551856,
              41.39558826909046
            ],
            [
              -73.40780936882429,
              41.39714777475804
            ],
            [
              -73.40656927811217,
              41.398058345516105
            ],
            [
              -73.40567126242992,
              41.4007260319065
            ],
            [
              -73.40190102803159,
              41.40144445449245
            ],
            [
              -73.40084313577607,
              41.40345860531922
            ],
            [
              -73.4053149102112,
              41.41332002778019
            ],
            [
              -73.40580979543529,
              41.41555451720955
            ],
            [
              -73.40690452459187,
              41.428713971884896
            ],
            [
              -73.41607275791219,
              41.430461737728784
            ],
            [
              -73.42668744037684,
              41.46368295060357
            ]
          ]
        ]
      },
      "properties": {
        "name": "Danbury",
        "town": "Danbury",
        "total": 1,
        "gap": 0,
        "lisc": 1
      }
    },
    {
      "type": "Feature",
      "geometry": {
        "type": "Polygon",
        "coordinates": [
          [
            [
              -73.10246875561084,
              41.35305958153612
            ],
            [
              -73.12026894735376,
              41.347118578031974
            ],
            [
              -73.1245581292912,
              41.345305964311656
            ],
            [
              -73.12144963465457,
              41.339257054424394
            ],
            [
              -73.11647035435023,
              41.3330452630232
            ],
            [
              -73.11484491525025,
              41.33172845094869
            ],
            [
              -73.09302060469733,
              41.32074607906239
            ],
            [
              -73.08925497828501,
              41.31769440854141
            ],
            [
              -73.0877399335844,
              41.31568029234752
            ],
            [
              -73.08519798413732,
              41.31374823894053
            ],
            [
              -73.08007889009211,
              41.31250319398775
            ],
            [
              -73.07850638584992,
              41.310878842452034
            ],
            [
              -73.07740604445188,
              41.30754139966988
            ],
            [
              -73.07574562123048,
              41.30581228333033
            ],
            [
              -73.06781751848708,
              41.30092151820797
            ],
            [
              -73.06649341636675,
              41.30245868173368
            ],
            [
              -73.06476747004264,
              41.306290492627724
            ],
            [
              -73.06138997230198,
              41.31017703232804
            ],
            [
              -73.05678780818103,
              41.31202637988329
            ],
            [
              -73.0537597737234,
              41.311345745930275
            ],
            [
              -73.04881621398093,
              41.311295961486465
            ],
            [
              -73.04106871626105,
              41.313786472895444
            ],
            [
              -73.03845195853847,
              41.32211872875579
            ],
            [
              -73.03888000141492,
              41.3267466045573
            ],
            [
              -73.0511287490052,
              41.32503064097016
            ],
            [
              -73.05612416211626,
              41.32364223748588
            ],
            [
              -73.05899359819087,
              41.324004876978854
            ],
            [
              -73.07247945910667,
              41.32677090485503
            ],
            [
              -73.07505056404806,
              41.32776984905262
            ],
            [
              -73.07737410628782,
              41.3298449476706
            ],
            [
              -73.0843083925947,
              41.332983523262094
            ],
            [
              -73.08817650463122,
              41.33513467887164
            ],
            [
              -73.08985237639443,
              41.33787371899324
            ],
            [
              -73.09241645285313,
              41.3393060978402
            ],
            [
              -73.09573081423333,
              41.33915155161635
            ],
            [
              -73.095971797127,
              41.340600611393704
            ],
            [
              -73.10246875561084,
              41.35305958153612
            ]
          ]
        ]
      },
      "properties": {
        "name": "Derby",
        "town": "Derby",
        "total": 1,
        "gap": 1,
        "lisc": 0
      }
    },
    {
      "type": "Feature",
      "geometry": {
        "type": "Polygon",
        "coordinates": [
          [
            [
              -72.94779637650056,
              41.464313065209076
            ],
            [
              -72.94702208751396,
              41.459159121356855
            ],
            [
              -72.94923267926076,
              41.455804677011194
            ],
            [
              -72.95143595618694,
              41.45465210815818
            ],
            [
              -72.95228164329141,
              41.45319743428373
            ],
            [
              -72.95667313813168,
              41.45078684701189
            ],
            [
              -72.95770088346423,
              41.44835512139328
            ],
            [
              -72.95712444926788,
              41.446604343489035
            ],
            [
              -72.95778046054849,
              41.44500639814149
            ],
            [
              -72.96089441355734,
              41.44189416898339
            ],
            [
              -72.96289929969342,
              41.438836400044245
            ],
            [
              -72.96287736253427,
              41.4370796433506
            ],
            [
              -72.96154827454346,
              41.43267192373314
            ],
            [
              -72.95526740020307,
              41.4291326761835
            ],
            [
              -72.95159138981127,
              41.42794191752037
            ],
            [
              -72.95290172722648,
              41.41891769449791
            ],
            [
              -72.93936781366219,
              41.412035225970605
            ],
            [
              -72.9384124877789,
              41.408198142442544
            ],
            [
              -72.94477715424466,
              41.40615643980537
            ],
            [
              -72.95312364586839,
              41.40000773270463
            ],
            [
              -72.95334887876403,
              41.396851188449105
            ],
            [
              -72.95551282686579,
              41.39428725115516
            ],
            [
              -72.95749574626751,
              41.39293666085349
            ],
            [
              -72.96553771678511,
              41.38112795063089
            ],
            [
              -72.96886501104134,
              41.37509442438712
            ],
            [
              -72.97399286472374,
              41.36497658494042
            ],
            [
              -72.97511136040953,
              41.35848813892821
            ],
            [
              -72.97461991808476,
              41.35151689591565
            ],
            [
              -72.97328517356517,
              41.34743912798089
            ],
            [
              -72.96799706927648,
              41.34786835150157
            ],
            [
              -72.96727537193276,
              41.346194381139775
            ],
            [
              -72.96434537665588,
              41.34396107505574
            ],
            [
              -72.96413509059141,
              41.34639274604356
            ],
            [
              -72.96206744427508,
              41.346760747136805
            ],
            [
              -72.96136155187538,
              41.34927480600848
            ],
            [
              -72.95846942962622,
              41.34903944124856
            ],
            [
              -72.95793033848575,
              41.3503735567479
            ],
            [
              -72.95494396622858,
              41.35029128201743
            ],
            [
              -72.952714527724,
              41.349199506718534
            ],
            [
              -72.95372631621176,
              41.34737108158796
            ],
            [
              -72.95118402711452,
              41.34694348560629
            ],
            [
              -72.95090730178174,
              41.34379243457475
            ],
            [
              -72.95305556953514,
              41.34381420980437
            ],
            [
              -72.95749080641558,
              41.34023997003961
            ],
            [
              -72.95427787317497,
              41.33729283602147
            ],
            [
              -72.94316404974066,
              41.336075188491705
            ],
            [
              -72.93537199733369,
              41.33543314703805
            ],
            [
              -72.91323990983794,
              41.333283724247536
            ],
            [
              -72.90266981780745,
              41.326616643898674
            ],
            [
              -72.89339896161523,
              41.3286003651115
            ],
            [
              -72.89268411786702,
              41.33043320659283
            ],
            [
              -72.88931842003456,
              41.33127733129367
            ],
            [
              -72.88908454743724,
              41.332693260279996
            ],
            [
              -72.8883297961176,
              41.339279923633626
            ],
            [
              -72.88614268746122,
              41.34182582456165
            ],
            [
              -72.88238270616263,
              41.343750856436316
            ],
            [
              -72.88052579382943,
              41.343266867732105
            ],
            [
              -72.87960686509733,
              41.3446055051741
            ],
            [
              -72.88093137980056,
              41.34563798630683
            ],
            [
              -72.88065337953464,
              41.34718602156581
            ],
            [
              -72.87746326759994,
              41.34661893152295
            ],
            [
              -72.8740035216971,
              41.34810440510359
            ],
            [
              -72.87341515907956,
              41.349933210927176
            ],
            [
              -72.87648080401253,
              41.35315567065405
            ],
            [
              -72.87856360888154,
              41.353546502123486
            ],
            [
              -72.88255598692653,
              41.35306544561796
            ],
            [
              -72.88431027775859,
              41.354422437978684
            ],
            [
              -72.88384892349116,
              41.35756747074408
            ],
            [
              -72.88174926787575,
              41.359279029283584
            ],
            [
              -72.88190810501048,
              41.360815930252635
            ],
            [
              -72.90101546062662,
              41.36477117807428
            ],
            [
              -72.90805283194098,
              41.36658986528623
            ],
            [
              -72.90384735932231,
              41.378047270010704
            ],
            [
              -72.90032643548294,
              41.37983567528682
            ],
            [
              -72.89932737736149,
              41.38103751861921
            ],
            [
              -72.89565276043221,
              41.38347882157799
            ],
            [
              -72.89353717464553,
              41.386156665127096
            ],
            [
              -72.89285037246934,
              41.38953202622391
            ],
            [
              -72.89099582167077,
              41.39287948949195
            ],
            [
              -72.88853242081576,
              41.393235154554475
            ],
            [
              -72.88611306080888,
              41.40180817180048
            ],
            [
              -72.88573041400713,
              41.406325333122396
            ],
            [
              -72.88636930593987,
              41.408960636021085
            ],
            [
              -72.88603925881378,
              41.41194649302085
            ],
            [
              -72.88328838822292,
              41.42315896248772
            ],
            [
              -72.88203404770115,
              41.4230267923851
            ],
            [
              -72.87785438673785,
              41.42421009601003
            ],
            [
              -72.87515437749175,
              41.42625615102549
            ],
            [
              -72.86900080720211,
              41.426107975294876
            ],
            [
              -72.86426042438855,
              41.42645567530024
            ],
            [
              -72.86157590973545,
              41.42574887306695
            ],
            [
              -72.85849407329357,
              41.42931790662309
            ],
            [
              -72.8553364606125,
              41.43007660178289
            ],
            [
              -72.85153220529165,
              41.434211120896215
            ],
            [
              -72.87021736421316,
              41.44153672458769
            ],
            [
              -72.88687236204959,
              41.447938897634124
            ],
            [
              -72.90815407448399,
              41.45605846407336
            ],
            [
              -72.91702544346158,
              41.45976034742328
            ],
            [
              -72.92931242486033,
              41.46109072070534
            ],
            [
              -72.93609165393735,
              41.46304547639489
            ],
            [
              -72.94779637650056,
              41.464313065209076
            ]
          ]
        ]
      },
      "properties": {
        "name": "Hamden",
        "town": "Hamden",
        "total": 10,
        "gap": 9,
        "lisc": 1
      }
    },
    {
      "type": "Feature",
      "geometry": {
        "type": "Polygon",
        "coordinates": [
          [
            [
              -72.68596000399211,
              41.802974211950776
            ],
            [
              -72.68590912567711,
              41.80042202948198
            ],
            [
              -72.6903685519486,
              41.801190234853735
            ],
            [
              -72.69122659556328,
              41.807419265837076
            ],
            [
              -72.71803745284207,
              41.80663070553437
            ],
            [
              -72.71427917610158,
              41.78110081224314
            ],
            [
              -72.71380150140013,
              41.77723159003229
            ],
            [
              -72.71634271711628,
              41.77088657654761
            ],
            [
              -72.71601058447581,
              41.765497067296906
            ],
            [
              -72.71473887530082,
              41.75667777440264
            ],
            [
              -72.71511877242585,
              41.75009726616882
            ],
            [
              -72.71505103933066,
              41.74489201698355
            ],
            [
              -72.71551264049374,
              41.74423301306153
            ],
            [
              -72.71447198544139,
              41.723777736480635
            ],
            [
              -72.7063182928434,
              41.7244105860939
            ],
            [
              -72.69313163675292,
              41.72528919018384
            ],
            [
              -72.68467711659287,
              41.72618913001603
            ],
            [
              -72.66918203819587,
              41.7282397721071
            ],
            [
              -72.65576614884081,
              41.72983346387483
            ],
            [
              -72.64792075878682,
              41.727805266631094
            ],
            [
              -72.64553105044617,
              41.729956205005614
            ],
            [
              -72.6425826772698,
              41.73460868625548
            ],
            [
              -72.64257873195558,
              41.739608448508875
            ],
            [
              -72.644808238642,
              41.7462721039858
            ],
            [
              -72.64635306657247,
              41.748676984113565
            ],
            [
              -72.65018204327076,
              41.75137336558677
            ],
            [
              -72.65529670971856,
              41.75334498688085
            ],
            [
              -72.66106324875435,
              41.75839579744076
            ],
            [
              -72.66376608892347,
              41.76145326271044
            ],
            [
              -72.66520164146395,
              41.76519632344688
            ],
            [
              -72.66515607421913,
              41.76937307825011
            ],
            [
              -72.66418043264204,
              41.77151872231423
            ],
            [
              -72.66056470362852,
              41.774865188916806
            ],
            [
              -72.65666349896088,
              41.777136930605806
            ],
            [
              -72.6521384048087,
              41.779182293390186
            ],
            [
              -72.64960737005843,
              41.78119561471941
            ],
            [
              -72.64815443136925,
              41.78345630376239
            ],
            [
              -72.64620750123011,
              41.78931151481239
            ],
            [
              -72.64583697197764,
              41.79468392609151
            ],
            [
              -72.64622287722972,
              41.79801014271619
            ],
            [
              -72.64601957068919,
              41.805989218151005
            ],
            [
              -72.65358281203434,
              41.806157004530725
            ],
            [
              -72.65567316919734,
              41.805894080759835
            ],
            [
              -72.6601640507623,
              41.80152658509579
            ],
            [
              -72.66262126194228,
              41.80139588735259
            ],
            [
              -72.66231924893665,
              41.80520999775364
            ],
            [
              -72.65945779078969,
              41.80563692198193
            ],
            [
              -72.65884144145696,
              41.807212322307024
            ],
            [
              -72.66274338177718,
              41.80670250465199
            ],
            [
              -72.68596000399211,
              41.802974211950776
            ]
          ]
        ]
      },
      "properties": {
        "name": "Hartford",
        "town": "Hartford",
        "total": 2,
        "gap": 0,
        "lisc": 2
      }
    },
    {
      "type": "Feature",
      "geometry": {
        "type": "Polygon",
        "coordinates": [
          [
            [
              -72.75199423992723,
              41.578724571825674
            ],
            [
              -72.75873414962248,
              41.57819527702619
            ],
            [
              -72.7815704754471,
              41.57550932466668
            ],
            [
              -72.800882530739,
              41.57282370860943
            ],
            [
              -72.80469905616276,
              41.56652838014023
            ],
            [
              -72.80885078554185,
              41.56175897407656
            ],
            [
              -72.80995418643369,
              41.56237949692275
            ],
            [
              -72.81561735272268,
              41.556813512519085
            ],
            [
              -72.81867141501696,
              41.554222902097806
            ],
            [
              -72.82202609473556,
              41.55401965313685
            ],
            [
              -72.8259796457022,
              41.55590765852632
            ],
            [
              -72.82546956547104,
              41.56421202554613
            ],
            [
              -72.82986856571728,
              41.56206019375207
            ],
            [
              -72.827911236289,
              41.57050192133934
            ],
            [
              -72.83969959521471,
              41.56873812606042
            ],
            [
              -72.84851315153884,
              41.5672647251184
            ],
            [
              -72.84659562501463,
              41.56210053867497
            ],
            [
              -72.84594188048564,
              41.55459738527663
            ],
            [
              -72.84455652886253,
              41.54491507529068
            ],
            [
              -72.85317109354206,
              41.546180732059604
            ],
            [
              -72.85183067597062,
              41.54024783293029
            ],
            [
              -72.85352887561415,
              41.53344103915101
            ],
            [
              -72.85772973558664,
              41.534476969533394
            ],
            [
              -72.86106375173516,
              41.52833334442221
            ],
            [
              -72.86014272702648,
              41.52738963850169
            ],
            [
              -72.85306308434615,
              41.525031888239496
            ],
            [
              -72.85382089231608,
              41.522051113462986
            ],
            [
              -72.85129787624115,
              41.51599265911767
            ],
            [
              -72.81768238336308,
              41.50928049725944
            ],
            [
              -72.7958800344259,
              41.5046741185244
            ],
            [
              -72.78279143896636,
              41.50009935263819
            ],
            [
              -72.7726762368258,
              41.49680882521779
            ],
            [
              -72.7447392632258,
              41.49826291618046
            ],
            [
              -72.74874336531144,
              41.54397195400859
            ],
            [
              -72.74954124711208,
              41.553914242645085
            ],
            [
              -72.75101065504074,
              41.56786177360015
            ],
            [
              -72.75199423992723,
              41.578724571825674
            ]
          ]
        ]
      },
      "properties": {
        "name": "Meriden",
        "town": "Meriden",
        "total": 2,
        "gap": 2,
        "lisc": 0
      }
    },
    {
      "type": "Feature",
      "geometry": {
        "type": "Polygon",
        "coordinates": [
          [
            [
              -73.06949599140611,
              41.514237081905634
            ],
            [
              -73.09428305670887,
              41.5138101202827
            ],
            [
              -73.0958133511587,
              41.50723893584119
            ],
            [
              -73.09664543831863,
              41.5064921693545
            ],
            [
              -73.09538735036217,
              41.502479633881826
            ],
            [
              -73.09939684064179,
              41.49829904362429
            ],
            [
              -73.10133088910486,
              41.4975789052683
            ],
            [
              -73.1020890690691,
              41.495564387773285
            ],
            [
              -73.10349051999047,
              41.494466079439675
            ],
            [
              -73.10452566261941,
              41.49201175294469
            ],
            [
              -73.10425370255655,
              41.48924549742457
            ],
            [
              -73.10427300086029,
              41.4835805412567
            ],
            [
              -73.10335204009823,
              41.48184047733103
            ],
            [
              -73.09632036813096,
              41.477577273135125
            ],
            [
              -73.07693152963166,
              41.46477440843547
            ],
            [
              -73.06997671018858,
              41.460433213530436
            ],
            [
              -73.06773610953836,
              41.46027956815185
            ],
            [
              -73.06462785125423,
              41.457430626406435
            ],
            [
              -73.06249724333686,
              41.45622836349171
            ],
            [
              -73.05914039679787,
              41.45869254054633
            ],
            [
              -73.05692241800375,
              41.458917529234505
            ],
            [
              -73.0547836806301,
              41.460289794782625
            ],
            [
              -73.05344147423055,
              41.46266696204633
            ],
            [
              -73.05384178630234,
              41.46474140023482
            ],
            [
              -73.05225790028398,
              41.46852898204076
            ],
            [
              -73.04573315322142,
              41.468873755405575
            ],
            [
              -73.04347830975685,
              41.4681932510286
            ],
            [
              -73.04105528850386,
              41.46880165285436
            ],
            [
              -73.03982221976266,
              41.466704576196776
            ],
            [
              -73.03656839050555,
              41.466006727842014
            ],
            [
              -73.0343859474966,
              41.46650581002277
            ],
            [
              -73.03164935216553,
              41.46537943513672
            ],
            [
              -73.03036525778442,
              41.466169718682025
            ],
            [
              -73.026331919622,
              41.46150808586267
            ],
            [
              -73.02617216974981,
              41.459866771986164
            ],
            [
              -73.00330059588349,
              41.46263409147644
            ],
            [
              -73.0009878543891,
              41.470054502735714
            ],
            [
              -73.0070902713411,
              41.48456016453337
            ],
            [
              -73.0179690850632,
              41.519355703906534
            ],
            [
              -73.04898163050916,
              41.51505452875109
            ],
            [
              -73.06949599140611,
              41.514237081905634
            ]
          ]
        ]
      },
      "properties": {
        "name": "Naugatuck",
        "town": "Naugatuck",
        "total": 2,
        "gap": 2,
        "lisc": 0
      }
    },
    {
      "type": "Feature",
      "geometry": {
        "type": "Polygon",
        "coordinates": [
          [
            [
              -72.76190813370496,
              41.71581604349703
            ],
            [
              -72.78297659188719,
              41.71292081361012
            ],
            [
              -72.79226018386154,
              41.70585872676866
            ],
            [
              -72.79636198912125,
              41.703274236140295
            ],
            [
              -72.7988019690824,
              41.70077212692271
            ],
            [
              -72.81540421141665,
              41.687940371486405
            ],
            [
              -72.81935832951034,
              41.684614336535404
            ],
            [
              -72.82381496429254,
              41.66866356085437
            ],
            [
              -72.8218515671964,
              41.656067243253986
            ],
            [
              -72.82116392257439,
              41.6561386799558
            ],
            [
              -72.81931112161948,
              41.64519963370392
            ],
            [
              -72.8141444671592,
              41.64556779801464
            ],
            [
              -72.80820319977663,
              41.64614417924537
            ],
            [
              -72.78078411765613,
              41.647956434780056
            ],
            [
              -72.75008529837223,
              41.650117605703805
            ],
            [
              -72.75744223652075,
              41.68864013397112
            ],
            [
              -72.76190813370496,
              41.71581604349703
            ]
          ]
        ]
      },
      "properties": {
        "name": "New Britain",
        "town": "New Britain",
        "total": 3,
        "gap": 2,
        "lisc": 1
      }
    },
    {
      "type": "Feature",
      "geometry": {
        "type": "Polygon",
        "coordinates": [
          [
            [
              -72.88908454743724,
              41.332693260279996
            ],
            [
              -72.88931842003456,
              41.33127733129367
            ],
            [
              -72.89268411786702,
              41.33043320659283
            ],
            [
              -72.89339896161523,
              41.3286003651115
            ],
            [
              -72.90266981780745,
              41.326616643898674
            ],
            [
              -72.91323990983794,
              41.333283724247536
            ],
            [
              -72.93537199733369,
              41.33543314703805
            ],
            [
              -72.94316404974066,
              41.336075188491705
            ],
            [
              -72.95427787317497,
              41.33729283602147
            ],
            [
              -72.95749080641558,
              41.34023997003961
            ],
            [
              -72.95305556953514,
              41.34381420980437
            ],
            [
              -72.95090730178174,
              41.34379243457475
            ],
            [
              -72.95118402711452,
              41.34694348560629
            ],
            [
              -72.95372631621176,
              41.34737108158796
            ],
            [
              -72.952714527724,
              41.349199506718534
            ],
            [
              -72.95494396622858,
              41.35029128201743
            ],
            [
              -72.95793033848575,
              41.3503735567479
            ],
            [
              -72.95846942962622,
              41.34903944124856
            ],
            [
              -72.96136155187538,
              41.34927480600848
            ],
            [
              -72.96206744427508,
              41.346760747136805
            ],
            [
              -72.96413509059141,
              41.34639274604356
            ],
            [
              -72.96434537665588,
              41.34396107505574
            ],
            [
              -72.96727537193276,
              41.346194381139775
            ],
            [
              -72.96799706927648,
              41.34786835150157
            ],
            [
              -72.97328517356517,
              41.34743912798089
            ],
            [
              -72.97211817244958,
              41.3454466608002
            ],
            [
              -72.97031839799487,
              41.34443707167919
            ],
            [
              -72.9699095966737,
              41.34261482604125
            ],
            [
              -72.97714871058884,
              41.33969223412635
            ],
            [
              -72.9826171528796,
              41.33789580452204
            ],
            [
              -72.98519905290871,
              41.3330089309962
            ],
            [
              -72.98713519655814,
              41.330867663538505
            ],
            [
              -72.98878059142393,
              41.33020796960895
            ],
            [
              -72.98898315970123,
              41.32879172835567
            ],
            [
              -72.99781101315948,
              41.32308414762144
            ],
            [
              -72.99773805294235,
              41.31466913882958
            ],
            [
              -72.98920484906763,
              41.313685008605205
            ],
            [
              -72.97093707156178,
              41.31177016484044
            ],
            [
              -72.95629578910487,
              41.310527609077226
            ],
            [
              -72.95740188469877,
              41.307529813706985
            ],
            [
              -72.95601856090497,
              41.30573534456665
            ],
            [
              -72.95673119977509,
              41.30328167560386
            ],
            [
              -72.95588574958953,
              41.30128330931145
            ],
            [
              -72.95316353876633,
              41.299774229963546
            ],
            [
              -72.95068743628526,
              41.29586098308122
            ],
            [
              -72.95172824507488,
              41.294252073276674
            ],
            [
              -72.94949367178592,
              41.29277069388937
            ],
            [
              -72.94600697880256,
              41.29189280744312
            ],
            [
              -72.9424773880935,
              41.28916457527443
            ],
            [
              -72.94027976811797,
              41.288368565179454
            ],
            [
              -72.94054896348322,
              41.28616736470462
            ],
            [
              -72.93893300378663,
              41.28185841648451
            ],
            [
              -72.93534417172434,
              41.27799246116654
            ],
            [
              -72.93702894798683,
              41.280009855581845
            ],
            [
              -72.93722411490191,
              41.28161661775396
            ],
            [
              -72.9326570924789,
              41.28241732725668
            ],
            [
              -72.93064263223536,
              41.28079594201307
            ],
            [
              -72.92867591415025,
              41.280544303119235
            ],
            [
              -72.92644959576474,
              41.28182823796638
            ],
            [
              -72.92504932430624,
              41.28353232498359
            ],
            [
              -72.92547190965438,
              41.285080267479536
            ],
            [
              -72.92326402096933,
              41.285508683788045
            ],
            [
              -72.92001093366483,
              41.28872874828901
            ],
            [
              -72.91554679750534,
              41.29548419886143
            ],
            [
              -72.91311135694052,
              41.295854596433266
            ],
            [
              -72.90920360250448,
              41.29770217111811
            ],
            [
              -72.90700577064545,
              41.2976172067702
            ],
            [
              -72.90519420270847,
              41.30079969781101
            ],
            [
              -72.90285348169802,
              41.30025274148809
            ],
            [
              -72.90353427679466,
              41.293113376614286
            ],
            [
              -72.90499577365217,
              41.292158209235836
            ],
            [
              -72.90442470989181,
              41.29043646011851
            ],
            [
              -72.90539666249069,
              41.2839241469251
            ],
            [
              -72.90222588801579,
              41.279596884538456
            ],
            [
              -72.9019935939363,
              41.2762240185745
            ],
            [
              -72.90375383138756,
              41.27184246037511
            ],
            [
              -72.90253366099853,
              41.2685686908485
            ],
            [
              -72.89840277779135,
              41.26669189634096
            ],
            [
              -72.89259890343492,
              41.261469775106214
            ],
            [
              -72.8922827890482,
              41.25849151258189
            ],
            [
              -72.90187435761332,
              41.253055346129926
            ],
            [
              -72.90281901720859,
              41.25141527038959
            ],
            [
              -72.90341775819842,
              41.24815655881645
            ],
            [
              -72.89947849137785,
              41.24722588942613
            ],
            [
              -72.89497551549465,
              41.2497876806031
            ],
            [
              -72.89288772502087,
              41.24969887982771
            ],
            [
              -72.89125523697727,
              41.25131262213072
            ],
            [
              -72.88924791542604,
              41.251037198774846
            ],
            [
              -72.88678048552211,
              41.253857244357484
            ],
            [
              -72.88740370475405,
              41.28555765067272
            ],
            [
              -72.87275569296928,
              41.30851026124731
            ],
            [
              -72.86082856482983,
              41.33610355536388
            ],
            [
              -72.8745469026827,
              41.33455753153079
            ],
            [
              -72.88908454743724,
              41.332693260279996
            ]
          ]
        ]
      },
      "properties": {
        "name": "New Haven",
        "town": "New Haven",
        "total": 21,
        "gap": 20,
        "lisc": 1
      }
    },
    {
      "type": "Feature",
      "geometry": {
        "type": "Polygon",
        "coordinates": [
          [
            [
              -73.44867339175269,
              41.15352980475813
            ],
            [
              -73.44958794948103,
              41.150026877888756
            ],
            [
              -73.45889441695276,
              41.13448865681388
            ],
            [
              -73.46597838181299,
              41.1257742151913
            ],
            [
              -73.47439870140522,
              41.11449731596146
            ],
            [
              -73.46887138188204,
              41.10883317004179
            ],
            [
              -73.45588112893896,
              41.09387994204954
            ],
            [
              -73.45363821660862,
              41.09108619698179
            ],
            [
              -73.45334038631604,
              41.08846141961717
            ],
            [
              -73.45060434257105,
              41.08805041694496
            ],
            [
              -73.45024829841962,
              41.08654013623268
            ],
            [
              -73.4481730416637,
              41.08602467324864
            ],
            [
              -73.4468662759025,
              41.08230767566917
            ],
            [
              -73.4467350273759,
              41.076224490100344
            ],
            [
              -73.44772155619796,
              41.07261167812167
            ],
            [
              -73.44727849192635,
              41.07136540453777
            ],
            [
              -73.44518934688338,
              41.07051976018132
            ],
            [
              -73.44441992654572,
              41.068417424973894
            ],
            [
              -73.44621882348426,
              41.06461784920358
            ],
            [
              -73.44659080824682,
              41.05883555546499
            ],
            [
              -73.44490302943868,
              41.05923249175214
            ],
            [
              -73.44105925853307,
              41.05797356879062
            ],
            [
              -73.44039634340083,
              41.056595485391256
            ],
            [
              -73.43645347543581,
              41.05748793871713
            ],
            [
              -73.43192886139208,
              41.05665187113469
            ],
            [
              -73.43269975350908,
              41.06140027410421
            ],
            [
              -73.43641269676941,
              41.06068516414167
            ],
            [
              -73.43714694316463,
              41.06240660302801
            ],
            [
              -73.43297470619697,
              41.063574949719715
            ],
            [
              -73.43287913666984,
              41.06512297573792
            ],
            [
              -73.43062023948782,
              41.07031660555238
            ],
            [
              -73.42917270357776,
              41.065270651454334
            ],
            [
              -73.42507760947129,
              41.066214561554915
            ],
            [
              -73.42314650171967,
              41.06940406697146
            ],
            [
              -73.42310319875033,
              41.07277232044623
            ],
            [
              -73.42135338147186,
              41.07362213416279
            ],
            [
              -73.42064718721574,
              41.07555815647594
            ],
            [
              -73.42130907664084,
              41.076990391791455
            ],
            [
              -73.42103531308517,
              41.08059860963382
            ],
            [
              -73.41866435957796,
              41.07686404772396
            ],
            [
              -73.41501702677526,
              41.07821014082461
            ],
            [
              -73.41199191460667,
              41.07246658607823
            ],
            [
              -73.40966177501885,
              41.071416530714366
            ],
            [
              -73.40790129589955,
              41.07306762854038
            ],
            [
              -73.40634117727926,
              41.076712370348574
            ],
            [
              -73.40734866750672,
              41.08055453313739
            ],
            [
              -73.40677672865792,
              41.08380745415066
            ],
            [
              -73.4097627461529,
              41.086749116371095
            ],
            [
              -73.40978868776385,
              41.09057771161087
            ],
            [
              -73.40885873257699,
              41.09223139420451
            ],
            [
              -73.41096001829403,
              41.09344935939506
            ],
            [
              -73.41109098499699,
              41.09505454713217
            ],
            [
              -73.4128683523964,
              41.09792541117683
            ],
            [
              -73.40932899819731,
              41.096750613873525
            ],
            [
              -73.40668528083981,
              41.096507163027454
            ],
            [
              -73.40635256284129,
              41.09873633311931
            ],
            [
              -73.40306206809632,
              41.09590747914793
            ],
            [
              -73.40197204315288,
              41.09258637315111
            ],
            [
              -73.39999648208493,
              41.09325273733133
            ],
            [
              -73.40096117001214,
              41.088915207370526
            ],
            [
              -73.4003078485543,
              41.08685240477989
            ],
            [
              -73.39611444498256,
              41.08945151233932
            ],
            [
              -73.39530344706297,
              41.08784569354911
            ],
            [
              -73.39761407766338,
              41.084716274480456
            ],
            [
              -73.39718272274924,
              41.08305290700536
            ],
            [
              -73.39514758595772,
              41.08257416481895
            ],
            [
              -73.39113085341171,
              41.08322976288266
            ],
            [
              -73.39137900811679,
              41.08724168437318
            ],
            [
              -73.39037236566882,
              41.089002171676334
            ],
            [
              -73.3862569690299,
              41.09137662048098
            ],
            [
              -73.3854063032268,
              41.092688821560806
            ],
            [
              -73.38939103684353,
              41.094492096463036
            ],
            [
              -73.38711118056855,
              41.0952709263524
            ],
            [
              -73.3836855964699,
              41.098868957561464
            ],
            [
              -73.38424580546592,
              41.10299254649611
            ],
            [
              -73.38337263139947,
              41.105067341838954
            ],
            [
              -73.38418390478327,
              41.107434185850494
            ],
            [
              -73.3803656348011,
              41.12321607036881
            ],
            [
              -73.38257210269248,
              41.13735953844654
            ],
            [
              -73.38272090629538,
              41.14234532276962
            ],
            [
              -73.38650883521721,
              41.145794848382764
            ],
            [
              -73.38883790424845,
              41.14898515575303
            ],
            [
              -73.3868899869828,
              41.17036260072367
            ],
            [
              -73.39494668223821,
              41.17165063741363
            ],
            [
              -73.41882486127723,
              41.160770381129
            ],
            [
              -73.44867339175269,
              41.15352980475813
            ]
          ]
        ]
      },
      "properties": {
        "name": "Norwalk",
        "town": "Norwalk",
        "total": 3,
        "gap": 1,
        "lisc": 2
      }
    },
    {
      "type": "Feature",
      "geometry": {
        "type": "Polygon",
        "coordinates": [
          [
            [
              -73.0868149373427,
              41.25562529573378
            ],
            [
              -73.0888733828741,
              41.25561956547069
            ],
            [
              -73.09071473499822,
              41.25704623083003
            ],
            [
              -73.09421334296903,
              41.25620005746856
            ],
            [
              -73.09502182793557,
              41.25803851907889
            ],
            [
              -73.09893586018038,
              41.25938228781342
            ],
            [
              -73.1031556868028,
              41.25965581225012
            ],
            [
              -73.10312079992282,
              41.26194468667262
            ],
            [
              -73.10446776636802,
              41.26345928056475
            ],
            [
              -73.10731340881836,
              41.264725958384226
            ],
            [
              -73.10601263283375,
              41.26698275632027
            ],
            [
              -73.10832049118804,
              41.268941499363535
            ],
            [
              -73.11913700202227,
              41.26545126802084
            ],
            [
              -73.14720122608145,
              41.25586504306677
            ],
            [
              -73.14541469125335,
              41.25081990090039
            ],
            [
              -73.14459049012699,
              41.24739344075446
            ],
            [
              -73.14326179150076,
              41.2442966807526
            ],
            [
              -73.14329337563602,
              41.24116762148573
            ],
            [
              -73.14060463554091,
              41.2379660555047
            ],
            [
              -73.14378304756067,
              41.23746800975297
            ],
            [
              -73.1478423979852,
              41.23595974253494
            ],
            [
              -73.14983686260257,
              41.23295746578302
            ],
            [
              -73.15372156865583,
              41.22987920150346
            ],
            [
              -73.1574378409115,
              41.22866683629501
            ],
            [
              -73.15898848333,
              41.22597199214007
            ],
            [
              -73.1613665331718,
              41.223941766499394
            ],
            [
              -73.16277871000835,
              41.220159838712206
            ],
            [
              -73.15372756705835,
              41.19270304180568
            ],
            [
              -73.15556006311796,
              41.19001958962666
            ],
            [
              -73.15471769450996,
              41.18911858524161
            ],
            [
              -73.15524168465956,
              41.18683514823927
            ],
            [
              -73.15403048982989,
              41.183052459017965
            ],
            [
              -73.15582813284087,
              41.1771459834354
            ],
            [
              -73.15920108194064,
              41.17376519245438
            ],
            [
              -73.15906394793153,
              41.17300183668575
            ],
            [
              -73.16400055170145,
              41.15844424793009
            ],
            [
              -73.14847546097198,
              41.15304288079872
            ],
            [
              -73.14079264711901,
              41.15085642659944
            ],
            [
              -73.13681076831546,
              41.1490986987402
            ],
            [
              -73.1343917365195,
              41.148960540306966
            ],
            [
              -73.12957624442308,
              41.14725201877631
            ],
            [
              -73.12296069805893,
              41.1490181304826
            ],
            [
              -73.11871058648894,
              41.14960621592043
            ],
            [
              -73.11631878637428,
              41.152215574436624
            ],
            [
              -73.11292382502785,
              41.15154746772744
            ],
            [
              -73.11112416940834,
              41.150563068191914
            ],
            [
              -73.10899740336778,
              41.15099654494305
            ],
            [
              -73.10783470340834,
              41.152472814195946
            ],
            [
              -73.10480797378733,
              41.15244090929266
            ],
            [
              -73.10278213273111,
              41.1514527908151
            ],
            [
              -73.10045356675114,
              41.1546842904142
            ],
            [
              -73.10248115454846,
              41.15556420506506
            ],
            [
              -73.10513748957021,
              41.15519370351441
            ],
            [
              -73.10746103764014,
              41.15647485774341
            ],
            [
              -73.10821557427415,
              41.160882994587226
            ],
            [
              -73.10718238324502,
              41.163622203445456
            ],
            [
              -73.1077833219184,
              41.168198924895606
            ],
            [
              -73.1130045160067,
              41.17259897097399
            ],
            [
              -73.11498105561377,
              41.172217019255605
            ],
            [
              -73.12246327789121,
              41.172978693330165
            ],
            [
              -73.12419182222185,
              41.173736379524605
            ],
            [
              -73.12281340975531,
              41.17887525387361
            ],
            [
              -73.12390990972425,
              41.18111792038936
            ],
            [
              -73.12183468425276,
              41.1828676463755
            ],
            [
              -73.12142273407069,
              41.18903993762127
            ],
            [
              -73.11641008758505,
              41.19413729382246
            ],
            [
              -73.11484035004855,
              41.19721019979306
            ],
            [
              -73.11052263745046,
              41.20020275059404
            ],
            [
              -73.10947066010822,
              41.20222416139457
            ],
            [
              -73.10933362310737,
              41.20460171172694
            ],
            [
              -73.11084856839821,
              41.20866864727185
            ],
            [
              -73.11061160369947,
              41.212440398658465
            ],
            [
              -73.10851522232201,
              41.21922618064978
            ],
            [
              -73.11008110129275,
              41.22300221456075
            ],
            [
              -73.1105052067216,
              41.22660892237874
            ],
            [
              -73.10919161788038,
              41.23050721228395
            ],
            [
              -73.10275378322044,
              41.23902363813617
            ],
            [
              -73.09795507065749,
              41.241550261438896
            ],
            [
              -73.0917527264816,
              41.24609142217384
            ],
            [
              -73.08826022244364,
              41.25029458464953
            ],
            [
              -73.08709749780148,
              41.25228779978845
            ],
            [
              -73.0868149373427,
              41.25562529573378
            ]
          ]
        ]
      },
      "properties": {
        "name": "Stratford",
        "town": "Stratford",
        "total": 4,
        "gap": 2,
        "lisc": 2
      }
    },
    {
      "type": "Feature",
      "geometry": {
        "type": "Polygon",
        "coordinates": [
          [
            [
              -73.17063910289467,
              41.894241634113534
            ],
            [
              -73.18334130065229,
              41.85200849617678
            ],
            [
              -73.19135093822665,
              41.82446989118317
            ],
            [
              -73.19884015408694,
              41.800207493941116
            ],
            [
              -73.20186019067401,
              41.79007973842869
            ],
            [
              -73.16299945792602,
              41.79389284878741
            ],
            [
              -73.15858740746586,
              41.78486199176713
            ],
            [
              -73.14340869382394,
              41.781410249720324
            ],
            [
              -73.11974172301989,
              41.77567571952916
            ],
            [
              -73.11822536543944,
              41.77733400325598
            ],
            [
              -73.11726762827294,
              41.78125916263995
            ],
            [
              -73.11299305522857,
              41.782205740392136
            ],
            [
              -73.1112028976376,
              41.78159148887174
            ],
            [
              -73.11055168857597,
              41.78332619956156
            ],
            [
              -73.1122839734106,
              41.785301809074916
            ],
            [
              -73.10365792173778,
              41.79506972696817
            ],
            [
              -73.10399744860476,
              41.79851704152924
            ],
            [
              -73.07648176477007,
              41.79838611722058
            ],
            [
              -73.07352007014018,
              41.80795377170964
            ],
            [
              -73.07049873295847,
              41.8196343981882
            ],
            [
              -73.05355468423294,
              41.88727982195574
            ],
            [
              -73.06198788125953,
              41.88601750926055
            ],
            [
              -73.07409279150004,
              41.883969454345184
            ],
            [
              -73.12001607133284,
              41.87706712543869
            ],
            [
              -73.15309550271226,
              41.87285562629674
            ],
            [
              -73.15269309824097,
              41.87754605356753
            ],
            [
              -73.15142700404866,
              41.88172253473496
            ],
            [
              -73.15168241894703,
              41.88503820840388
            ],
            [
              -73.15815797032707,
              41.891983787395276
            ],
            [
              -73.17063910289467,
              41.894241634113534
            ]
          ]
        ]
      },
      "properties": {
        "name": "Torrington",
        "town": "Torrington",
        "total": 1,
        "gap": 0,
        "lisc": 1
      }
    },
    {
      "type": "Feature",
      "geometry": {
        "type": "Polygon",
        "coordinates": [
          [
            [
              -73.01863920210835,
              41.614263424092485
            ],
            [
              -73.02032880161137,
              41.61422550807248
            ],
            [
              -73.03630288525584,
              41.61544965665083
            ],
            [
              -73.05080201289303,
              41.60979304747253
            ],
            [
              -73.05875969645086,
              41.60665933232178
            ],
            [
              -73.0597837431312,
              41.60569878929835
            ],
            [
              -73.05894307154448,
              41.602888560526246
            ],
            [
              -73.06046422455795,
              41.60090679047586
            ],
            [
              -73.05995258235623,
              41.59975929747612
            ],
            [
              -73.05901707954908,
              41.593864450331324
            ],
            [
              -73.05931722061243,
              41.59178373408721
            ],
            [
              -73.05732836982011,
              41.58943985656719
            ],
            [
              -73.05786220143978,
              41.588742381734676
            ],
            [
              -73.06425224374918,
              41.588534376812405
            ],
            [
              -73.08202662435906,
              41.587193577098034
            ],
            [
              -73.0922486489693,
              41.57038329189085
            ],
            [
              -73.0937033565797,
              41.570163692347805
            ],
            [
              -73.08777844986112,
              41.53966071199707
            ],
            [
              -73.08077543088474,
              41.526142279759554
            ],
            [
              -73.06949599140611,
              41.514237081905634
            ],
            [
              -73.04898163050916,
              41.51505452875109
            ],
            [
              -73.0179690850632,
              41.519355703906534
            ],
            [
              -73.01083833490414,
              41.52225083709714
            ],
            [
              -73.00652796056042,
              41.523379917633314
            ],
            [
              -72.97819886566796,
              41.533839958652656
            ],
            [
              -72.96949669114892,
              41.5304008145988
            ],
            [
              -72.95649371420298,
              41.55529631350729
            ],
            [
              -72.96587696560435,
              41.55419161653824
            ],
            [
              -72.97976748775395,
              41.55348444085369
            ],
            [
              -72.99928777780852,
              41.571683466139824
            ],
            [
              -73.01206680869043,
              41.5840925203735
            ],
            [
              -73.01863920210835,
              41.614263424092485
            ]
          ]
        ]
      },
      "properties": {
        "name": "Waterbury",
        "town": "Waterbury",
        "total": 8,
        "gap": 2,
        "lisc": 6
      }
    },
    {
      "type": "Feature",
      "geometry": {
        "type": "Polygon",
        "coordinates": [
          [
            [
              -72.98920484906763,
              41.313685008605205
            ],
            [
              -72.98428228748757,
              41.302044403909406
            ],
            [
              -72.98613003525624,
              41.29107046219408
            ],
            [
              -72.98729954165549,
              41.28815508951754
            ],
            [
              -72.98614807615522,
              41.2851913367884
            ],
            [
              -72.98725154916082,
              41.28134330707863
            ],
            [
              -72.9860276721784,
              41.280514590619504
            ],
            [
              -72.98336524746267,
              41.28124030752603
            ],
            [
              -72.98015467417066,
              41.27898515353495
            ],
            [
              -72.98615322182266,
              41.273054223386666
            ],
            [
              -72.9921448393591,
              41.268243267515096
            ],
            [
              -72.9924364508137,
              41.25165408464419
            ],
            [
              -72.99127162354806,
              41.2504966413585
            ],
            [
              -72.99229761949877,
              41.24848514105444
            ],
            [
              -72.99041388465817,
              41.2477947477203
            ],
            [
              -72.99086273708072,
              41.245143280924054
            ],
            [
              -72.99212082010895,
              41.24487921133288
            ],
            [
              -72.99347305732171,
              41.24414853151009
            ],
            [
              -72.99460531645336,
              41.24185341083529
            ],
            [
              -72.99317943571161,
              41.24104149484219
            ],
            [
              -72.99220320373195,
              41.23885154795215
            ],
            [
              -72.99345930099953,
              41.235897659313956
            ],
            [
              -72.99233053962905,
              41.23422400797267
            ],
            [
              -72.98671763722459,
              41.23551092813711
            ],
            [
              -72.9853637370946,
              41.234744393716674
            ],
            [
              -72.98055238170306,
              41.23469192030022
            ],
            [
              -72.97543072774639,
              41.233088683602624
            ],
            [
              -72.97218751703261,
              41.236085011404995
            ],
            [
              -72.96883804790176,
              41.240619584165856
            ],
            [
              -72.9665594657577,
              41.24454258168193
            ],
            [
              -72.96263876279656,
              41.24735568766693
            ],
            [
              -72.96131540950743,
              41.24906145580973
            ],
            [
              -72.96157732619152,
              41.25111987809577
            ],
            [
              -72.95988134747742,
              41.25247690385742
            ],
            [
              -72.95655577381781,
              41.252030448781184
            ],
            [
              -72.95339171644535,
              41.25474855635542
            ],
            [
              -72.95102081300149,
              41.25580509290231
            ],
            [
              -72.94615089518044,
              41.25666416887506
            ],
            [
              -72.9414951785982,
              41.25821138020862
            ],
            [
              -72.93266488698742,
              41.259881605765
            ],
            [
              -72.93149875333731,
              41.26135572223324
            ],
            [
              -72.92780453054154,
              41.263946334341334
            ],
            [
              -72.92852663377948,
              41.26572485809496
            ],
            [
              -72.92628708778912,
              41.267648114416644
            ],
            [
              -72.92224861008452,
              41.268629074687794
            ],
            [
              -72.92199456562592,
              41.26988558688499
            ],
            [
              -72.92795373750015,
              41.267723239556226
            ],
            [
              -72.92936324745656,
              41.26927975406559
            ],
            [
              -72.93325167601269,
              41.27196167589729
            ],
            [
              -72.93534417172434,
              41.27799246116654
            ],
            [
              -72.93893300378663,
              41.28185841648451
            ],
            [
              -72.94054896348322,
              41.28616736470462
            ],
            [
              -72.94027976811797,
              41.288368565179454
            ],
            [
              -72.9424773880935,
              41.28916457527443
            ],
            [
              -72.94600697880256,
              41.29189280744312
            ],
            [
              -72.94949367178592,
              41.29277069388937
            ],
            [
              -72.95172824507488,
              41.294252073276674
            ],
            [
              -72.95068743628526,
              41.29586098308122
            ],
            [
              -72.95316353876633,
              41.299774229963546
            ],
            [
              -72.95588574958953,
              41.30128330931145
            ],
            [
              -72.95673119977509,
              41.30328167560386
            ],
            [
              -72.95601856090497,
              41.30573534456665
            ],
            [
              -72.95740188469877,
              41.307529813706985
            ],
            [
              -72.95629578910487,
              41.310527609077226
            ],
            [
              -72.97093707156178,
              41.31177016484044
            ],
            [
              -72.98920484906763,
              41.313685008605205
            ]
          ]
        ]
      },
      "properties": {
        "name": "West Haven",
        "town": "West Haven",
        "total": 3,
        "gap": 3,
        "lisc": 0
      }
    },
    {
      "type": "Feature",
      "geometry": {
        "type": "Polygon",
        "coordinates": [
          [
            [
              -72.68763218186218,
              41.9482062572446
            ],
            [
              -72.69675240963204,
              41.9224892065322
            ],
            [
              -72.69379882136347,
              41.92041476571875
            ],
            [
              -72.68703853042912,
              41.918307540238054
            ],
            [
              -72.68040972886779,
              41.91775285196472
            ],
            [
              -72.6763324403153,
              41.916846811258736
            ],
            [
              -72.67277612402187,
              41.91512321377635
            ],
            [
              -72.66504156353636,
              41.90959515127696
            ],
            [
              -72.66165543954907,
              41.907668263865816
            ],
            [
              -72.64617867421696,
              41.90234028283025
            ],
            [
              -72.6396297285436,
              41.8982712906629
            ],
            [
              -72.63532081808314,
              41.90354329712478
            ],
            [
              -72.62167131596506,
              41.904694891717966
            ],
            [
              -72.62307432752839,
              41.9128709909943
            ],
            [
              -72.62265215859009,
              41.916894165056604
            ],
            [
              -72.6228037172038,
              41.92190466487614
            ],
            [
              -72.62393915070442,
              41.9265853890527
            ],
            [
              -72.62425912713026,
              41.9309204776634
            ],
            [
              -72.62360836818759,
              41.9343561365724
            ],
            [
              -72.62261043077547,
              41.936057959286195
            ],
            [
              -72.61419313921114,
              41.94332776026992
            ],
            [
              -72.6245027208009,
              41.9438436346672
            ],
            [
              -72.68763218186218,
              41.9482062572446
            ]
          ]
        ]
      },
      "properties": {
        "name": "Windsor Locks",
        "town": "Windsor Locks",
        "total": 1,
        "gap": 1,
        "lisc": 0
      }
    }
  ]
}