<?xml version="1.0" encoding="UTF-8"?>
<kml xmlns="http://www.opengis.net/kml/2.2">
  <Document>
    <name>Participants: Town Aggregates (Polygons)</name>
    <description>Generated 2026-10-05 12:36 EDT from Airtable Properties / GAP program map. Do not edit by hand.</description>
    <Style id="polyStyle">
      <LineStyle><color>ff333333</color><width>1.5</width></LineStyle>
      <PolyStyle><color>7fd08228</color><fill>1</fill><outline>1</outline></PolyStyle>
    </Style>
  </Document>
</kml>